; HEADER_BLOCK_START
; BambuStudio 02.04.00.70
; model printing time: 11s; total estimated time: 6m 45s
; total layer number: 3
; total filament length [mm] : 20.51
; total filament volume [cm^3] : 49.33
; total filament weight [g] : 0.07
; filament_density: 1.32
; filament_diameter: 1.75
; max_z_height: 0.68
; filament: 1
; HEADER_BLOCK_END

; CONFIG_BLOCK_START
default_acceleration = 10000,10000
default_jerk = 0
machine_max_acceleration_extruding = 10000,10000,10000,20000
machine_max_acceleration_retracting = 10000,10000,10000,10000
machine_max_acceleration_travel = 10000,10000,10000,10000
machine_max_acceleration_x = 10000,10000,10000,10000
machine_max_acceleration_y = 10000,10000,10000,10000
machine_max_acceleration_z = 500,500,500,500
machine_max_jerk_x = 0,0,0,0
machine_max_jerk_y = 0,0,0,0
machine_max_jerk_z = 0,0,0,0
machine_max_speed_x = 500,500,500,500
machine_max_speed_y = 500,500,500,500
machine_max_speed_z = 30,30,30,30
travel_acceleration = 10000,10000
travel_jerk = 0
travel_speed = 500,500
travel_speed_z = 30,30
; CONFIG_BLOCK_END

; EXECUTABLE_BLOCK_START
M73 P0 R8
M201 X10000 Y10000 Z10000 E5000
M203 X500 Y500 Z30 E50
M204 P10000 R5000 T10000
M205 X0 Y0 Z0 E0
M106 S0
M106 P2 S0
M104 S1 ; set nozzle temperature
; FEATURE: Custom
;===== machine: H2D start ======
;===== date: 20251022 =====================

M400 ; Wait for moves to finish

;===== reset machine status =================
M204 S10000 ; Set acceleration
M630 S0 P0 ; Reset leveling data

G90 ; Absolute positioning
M17 D ; reset motor current to default
M960 S5 P1 ; turn on logo lamp
G90 ; Absolute positioning
M220 S100 ;Reset Feedrate
M221 S100 ;Reset Flowrate
M73.2   R1.0 ;Reset left time magnitude
G29.1 Z{+0.0} ; clear z-trim value first
M983.1 M1 ; Reset toolhead offset
M901 D4 ; Set motor drive mode
M481 S0 ; turn off cutter pos comp
;===== reset machine status =================


;===== avoid end stop =================
G91 ; Relative positioning
G380 S2 Z27 F1200 ; Move Z to avoid endstop
G380 S2 Z-12 F1200 ; Move Z back
G90 ; Absolute positioning
;===== avoid end stop =================

;==== set airduct mode ==== 
M106 P2 S0 ; turn off auxiliary fan
M106 P3 S0 ; turn off chamber fan
;==== set airduct mode ====

;====== cog noise reduction=================
M982.2 S1 ; turn on cog noise reduction

;===== first homing start =====
M1002 gcode_claim_action : 13 ; Set action status
G28 X T300 ; Home X
M972 S24 P0 T2000 ; Bed leveling sensor check

{if curr_bed_type=="Textured PEI Plate"}
M972 S26 P0 C0 ; Sensor check
{else}
M972 S36 P0 C0 X1 ; Sensor check
{endif}
M972 S35 P0 C0 ; Sensor check

M1009 Q1 L1 ; Service mode enter
G90 ; Absolute positioning
G1 X175 Y160 F30000 ; Move to center
G28 Z P0 T250 ; Home Z
M1009 Q1 L0 ; Service mode exit

;===== first homing end =====

M400 ; Wait for moves to finish

M1002 gcode_claim_action : 0 ; Set action status
M400 ; Wait for moves to finish



;========turn off light and fans =============
M960 S1 P0 ; turn off laser
M960 S2 P0 ; turn off laser
M106 S0 ; turn off fan
M106 P2 S0 ; turn off big fan

;============set motor current==================


M975 S0 ; turn off mech mode supression
M983.4 S1 ; turn on deformation compensation 
G29.7 S1 ; Enable mesh fade
M400 ; Wait for moves to finish


M211 Z1 ; Enable Z soft endstop
G29.99 ; End leveling
; Time to print!!!!!
; GCode created with FullControl - tell us what you're printing!
; info@fullcontrol.xyz or tag FullControlXYZ on Twitter/Instagram/LinkedIn/Reddit/TikTok
G0 F6000 X61 Y61 Z1
; Fastest axis bed size: 300, Slowest Axis bed size: 300
Section calibration
G4 P6000 ; pause for 6 seconds
G0 F3000 X239 Y239
G4 P6000 ; pause for 6 seconds
G0 X130.967013 Y68.266008
G4 P6000 ; pause for 6 seconds
G0 X190.70669 Y183.833192
G4 P6000 ; pause for 6 seconds
G0 X61 Y128.715972
G4 P6000 ; pause for 6 seconds
G0 X239 Y182.185127
G4 P6000 ; pause for 6 seconds
G0 X61 Y182.520755
G4 P6000 ; pause for 6 seconds
G0 X239 Y61
G4 P6000 ; pause for 6 seconds
G0 X113.630533 Y182.248673
G4 P6000 ; pause for 6 seconds
G0 X239 Y122.909732
G4 P6000 ; pause for 6 seconds
G0 X61 Y239
G4 P6000 ; pause for 6 seconds
G0 X192.902012 Y61.125735
G4 P6000 ; pause for 6 seconds
G0 X184.599356 Y235.093818
G4 P6000 ; pause for 6 seconds
G0 X133.956498 Y116.285734
G4 P6000 ; pause for 6 seconds
G0 X128.409094 Y237.336122
G4 P6000 ; pause for 6 seconds
G0 X179.389211 Y125.024379
G4 P6000 ; pause for 6 seconds
G0 X61 Y61
Section 1
G4 P6000 ; pause for 6 seconds
G0 F6000 X239
G0 X149.5 Y239
G0 X61 Y61
G4 P6000 ; pause for 6 seconds
G0 X61
G0 X65.368339 Y61.05361
G0 X69.734046 Y61.214409
G0 X74.094492 Y61.482299
G0 X78.447051 Y61.857119
G0 X82.7891 Y62.338643
G0 X87.118024 Y62.926581
G0 X91.431216 Y63.62058
G0 X95.726077 Y64.42022
G0 X100.000021 Y65.325021
G0 X104.250472 Y66.334437
G0 X108.474871 Y67.44786
G0 X112.670673 Y68.66462
G0 X116.83535 Y69.983984
G0 X120.966394 Y71.405156
G0 X125.061317 Y72.927282
G0 X129.117651 Y74.549443
G0 X133.132954 Y76.270663
G0 X137.104807 Y78.089906
G0 X141.030817 Y80.006074
G0 X144.908619 Y82.018015
G0 X148.735878 Y84.124516
G0 X152.510288 Y86.324307
G0 X156.229576 Y88.616065
G0 X159.891501 Y90.998409
G0 X163.493858 Y93.469903
G0 X167.034476 Y96.029059
G0 X170.511223 Y98.674336
G0 X173.922005 Y101.404139
G0 X177.264766 Y104.216825
G0 X180.537494 Y107.1107
G0 X183.738217 Y110.084019
G0 X186.865007 Y113.134993
G0 X189.915981 Y116.261783
G0 X192.8893 Y119.462506
G0 X195.783175 Y122.735234
G0 X198.595861 Y126.077995
G0 X201.325664 Y129.488777
G0 X203.970941 Y132.965524
G0 X206.530097 Y136.506142
G0 X209.001591 Y140.108499
G0 X211.383935 Y143.770424
G0 X213.675693 Y147.489712
G0 X215.875484 Y151.264122
G0 X217.981985 Y155.091381
G0 X219.993926 Y158.969183
G0 X221.910094 Y162.895193
G0 X223.729337 Y166.867046
G0 X225.450557 Y170.882349
G0 X227.072718 Y174.938683
G0 X228.594844 Y179.033606
G0 X230.016016 Y183.16465
G0 X231.33538 Y187.329327
G0 X232.55214 Y191.525129
G0 X233.665563 Y195.749528
G0 X234.674979 Y199.999979
G0 X235.57978 Y204.273923
G0 X236.37942 Y208.568784
G0 X237.073419 Y212.881976
G0 X237.661357 Y217.2109
G0 X238.142881 Y221.552949
G0 X238.517701 Y225.905508
G0 X238.785591 Y230.265954
G0 X238.94639 Y234.631661
G0 X239 Y239
G0 Y239
G0 X234.631661 Y238.94639
G0 X230.265954 Y238.785591
G0 X225.905508 Y238.517701
G0 X221.552949 Y238.142881
G0 X217.2109 Y237.661357
G0 X212.881976 Y237.073419
G0 X208.568784 Y236.37942
G0 X204.273923 Y235.57978
G0 X199.999979 Y234.674979
G0 X195.749528 Y233.665563
G0 X191.525129 Y232.55214
G0 X187.329327 Y231.33538
G0 X183.16465 Y230.016016
G0 X179.033606 Y228.594844
G0 X174.938683 Y227.072718
G0 X170.882349 Y225.450557
G0 X166.867046 Y223.729337
G0 X162.895193 Y221.910094
G0 X158.969183 Y219.993926
G0 X155.091381 Y217.981985
G0 X151.264122 Y215.875484
G0 X147.489712 Y213.675693
G0 X143.770424 Y211.383935
G0 X140.108499 Y209.001591
G0 X136.506142 Y206.530097
G0 X132.965524 Y203.970941
G0 X129.488777 Y201.325664
G0 X126.077995 Y198.595861
G0 X122.735234 Y195.783175
G0 X119.462506 Y192.8893
G0 X116.261783 Y189.915981
G0 X113.134993 Y186.865007
G0 X110.084019 Y183.738217
G0 X107.1107 Y180.537494
G0 X104.216825 Y177.264766
G0 X101.404139 Y173.922005
G0 X98.674336 Y170.511223
G0 X96.029059 Y167.034476
G0 X93.469903 Y163.493858
G0 X90.998409 Y159.891501
G0 X88.616065 Y156.229576
G0 X86.324307 Y152.510288
G0 X84.124516 Y148.735878
G0 X82.018015 Y144.908619
G0 X80.006074 Y141.030817
G0 X78.089906 Y137.104807
G0 X76.270663 Y133.132954
G0 X74.549443 Y129.117651
G0 X72.927282 Y125.061317
G0 X71.405156 Y120.966394
G0 X69.983984 Y116.83535
G0 X68.66462 Y112.670673
G0 X67.44786 Y108.474871
G0 X66.334437 Y104.250472
G0 X65.325021 Y100.000021
G0 X64.42022 Y95.726077
G0 X63.62058 Y91.431216
G0 X62.926581 Y87.118024
G0 X62.338643 Y82.7891
G0 X61.857119 Y78.447051
G0 X61.482299 Y74.094492
G0 X61.214409 Y69.734046
G0 X61.05361 Y65.368339
G0 X61 Y61
G4 P6000 ; pause for 6 seconds
G0 F2000 X239 Y150
G4 P6000 ; pause for 6 seconds
G0 F6000 X238.644 Y150.024666 Z1
G0 X238.288 Y150.098566
G0 X237.932 Y150.221409 Z1
G0 X237.576 Y150.39271
G0 X237.22 Y150.611794 Z1
G0 X236.864 Y150.877794 Z1
G0 X236.508 Y151.189662
G0 X236.152 Y151.546166 Z1
G0 X235.796 Y151.945901
G0 X235.44 Y152.387288 Z1
G0 X235.084 Y152.868584
G0 X234.728 Y153.387892 Z1
G0 X234.372 Y153.943161 Z1
G0 X234.016 Y154.5322
G0 X233.66 Y155.152684 Z1
G0 X233.304 Y155.802165
G0 X232.948 Y156.478079 Z1
G0 X232.592 Y157.177759 Z1
G0 X232.236 Y157.898443
G0 X231.88 Y158.637288 Z1
G0 X231.524 Y159.391376
G0 X231.168 Y160.157734 Z1
G0 X230.812 Y160.933335 Z1
G0 X230.456 Y161.715119
G0 X230.1 Y162.5 Z1
G0 X229.744 Y163.284881
G0 X229.388 Y164.066665 Z1
G0 X229.032 Y164.842266
G0 X228.676 Y165.608624 Z1
G0 X228.32 Y166.362712 Z1
G0 X227.964 Y167.101557
G0 X227.608 Y167.822241 Z1
G0 X227.252 Y168.521921
G0 X226.896 Y169.197835 Z1
G0 X226.54 Y169.847316 Z1
G0 X226.184 Y170.4678
G0 X225.828 Y171.056839 Z1
G0 X225.472 Y171.612108
G0 X225.116 Y172.131416 Z1
G0 X224.76 Y172.612712 Z1
G0 X224.404 Y173.054099
G0 X224.048 Y173.453834 Z1
G0 X223.692 Y173.810338
G0 X223.336 Y174.122206 Z1
G0 X222.98 Y174.388206 Z1
G0 X222.624 Y174.60729
G0 X222.268 Y174.778591 Z1
G0 X221.912 Y174.901434
G0 X221.556 Y174.975334 Z1
G0 X221.2 Y175
G0 X220.844 Y174.975334 Z1
G0 X220.488 Y174.901434 Z1
G0 X220.132 Y174.778591
G0 X219.776 Y174.60729 Z1
G0 X219.42 Y174.388206
G0 X219.064 Y174.122206 Z1
G0 X218.708 Y173.810338 Z1
G0 X218.352 Y173.453834
G0 X217.996 Y173.054099 Z1
G0 X217.64 Y172.612712
G0 X217.284 Y172.131416 Z1
G0 X216.928 Y171.612108 Z1
G0 X216.572 Y171.056839
G0 X216.216 Y170.4678 Z1
G0 X215.86 Y169.847316
G0 X215.504 Y169.197835 Z1
G0 X215.148 Y168.521921
G0 X214.792 Y167.822241 Z1
G0 X214.436 Y167.101557 Z1
G0 X214.08 Y166.362712
G0 X213.724 Y165.608624 Z1
G0 X213.368 Y164.842266
G0 X213.012 Y164.066665 Z1
G0 X212.656 Y163.284881 Z1
G0 X212.3 Y162.5
G0 X211.944 Y161.715119 Z1
G0 X211.588 Y160.933335
G0 X211.232 Y160.157734 Z1
G0 X210.876 Y159.391376 Z1
G0 X210.52 Y158.637288
G0 X210.164 Y157.898443 Z1
G0 X209.808 Y157.177759
G0 X209.452 Y156.478079 Z1
G0 X209.096 Y155.802165
G0 X208.74 Y155.152684 Z1
G0 X208.384 Y154.5322 Z1
G0 X208.028 Y153.943161
G0 X207.672 Y153.387892 Z1
G0 X207.316 Y152.868584
G0 X206.96 Y152.387288 Z1
G0 X206.604 Y151.945901 Z1
G0 X206.248 Y151.546166
G0 X205.892 Y151.189662 Z1
G0 X205.536 Y150.877794
G0 X205.18 Y150.611794 Z1
G0 X204.824 Y150.39271 Z1
G0 X204.468 Y150.221409
G0 X204.112 Y150.098566 Z1
G0 X203.756 Y150.024666
G0 X203.4 Y150 Z1
G0 X203.044 Y150.024666
G0 X202.688 Y150.098566 Z1
G0 X202.332 Y150.221409 Z1
G0 X201.976 Y150.39271
G0 X201.62 Y150.611794 Z1
G0 X201.264 Y150.877794
G0 X200.908 Y151.189662 Z1
G0 X200.552 Y151.546166 Z1
G0 X200.196 Y151.945901
G0 X199.84 Y152.387288 Z1
G0 X199.484 Y152.868584
G0 X199.128 Y153.387892 Z1
G0 X198.772 Y153.943161 Z1
G0 X198.416 Y154.5322
G0 X198.06 Y155.152684 Z1
G0 X197.704 Y155.802165
G0 X197.348 Y156.478079 Z1
G0 X196.992 Y157.177759 Z1
G0 X196.636 Y157.898443
G0 X196.28 Y158.637288 Z1
G0 X195.924 Y159.391376
G0 X195.568 Y160.157734 Z1
G0 X195.212 Y160.933335
G0 X194.856 Y161.715119 Z1
G0 X194.5 Y162.5 Z1
G0 X194.144 Y163.284881
G0 X193.788 Y164.066665 Z1
G0 X193.432 Y164.842266
G0 X193.076 Y165.608624 Z1
G0 X192.72 Y166.362712 Z1
G0 X192.364 Y167.101557
G0 X192.008 Y167.822241 Z1
G0 X191.652 Y168.521921
G0 X191.296 Y169.197835 Z1
G0 X190.94 Y169.847316 Z1
G0 X190.584 Y170.4678
G0 X190.228 Y171.056839 Z1
G0 X189.872 Y171.612108
G0 X189.516 Y172.131416 Z1
G0 X189.16 Y172.612712
G0 X188.804 Y173.054099 Z1
G0 X188.448 Y173.453834 Z1
G0 X188.092 Y173.810338
G0 X187.736 Y174.122206 Z1
G0 X187.38 Y174.388206
G0 X187.024 Y174.60729 Z1
G0 X186.668 Y174.778591 Z1
G0 X186.312 Y174.901434
G0 X185.956 Y174.975334 Z1
G0 X185.6 Y175
G0 X185.244 Y174.975334 Z1
G0 X184.888 Y174.901434 Z1
G0 X184.532 Y174.778591
G0 X184.176 Y174.60729 Z1
G0 X183.82 Y174.388206
G0 X183.464 Y174.122206 Z1
G0 X183.108 Y173.810338
G0 X182.752 Y173.453834 Z1
G0 X182.396 Y173.054099 Z1
G0 X182.04 Y172.612712
G0 X181.684 Y172.131416 Z1
G0 X181.328 Y171.612108
G0 X180.972 Y171.056839 Z1
G0 X180.616 Y170.4678 Z1
G0 X180.26 Y169.847316
G0 X179.904 Y169.197835 Z1
G0 X179.548 Y168.521921
G0 X179.192 Y167.822241 Z1
G0 X178.836 Y167.101557 Z1
G0 X178.48 Y166.362712
G0 X178.124 Y165.608624 Z1
G0 X177.768 Y164.842266
G0 X177.412 Y164.066665 Z1
G0 X177.056 Y163.284881
G0 X176.7 Y162.5 Z1
G0 X176.344 Y161.715119 Z1
G0 X175.988 Y160.933335
G0 X175.632 Y160.157734 Z1
G0 X175.276 Y159.391376
G0 X174.92 Y158.637288 Z1
G0 X174.564 Y157.898443 Z1
G0 X174.208 Y157.177759
G0 X173.852 Y156.478079 Z1
G0 X173.496 Y155.802165
G0 X173.14 Y155.152684 Z1
G0 X172.784 Y154.5322 Z1
G0 X172.428 Y153.943161
G0 X172.072 Y153.387892 Z1
G0 X171.716 Y152.868584
G0 X171.36 Y152.387288 Z1
G0 X171.004 Y151.945901 Z1
G0 X170.648 Y151.546166
G0 X170.292 Y151.189662 Z1
G0 X169.936 Y150.877794
G0 X169.58 Y150.611794 Z1
G0 X169.224 Y150.39271
G0 X168.868 Y150.221409 Z1
G0 X168.512 Y150.098566 Z1
G0 X168.156 Y150.024666
G0 X167.8 Y150 Z1
G0 X167.444 Y150.024666
G0 X167.088 Y150.098566 Z1
G0 X166.732 Y150.221409 Z1
G0 X166.376 Y150.39271
G0 X166.02 Y150.611794 Z1
G0 X165.664 Y150.877794
G0 X165.308 Y151.189662 Z1
G0 X164.952 Y151.546166 Z1
G0 X164.596 Y151.945901
G0 X164.24 Y152.387288 Z1
G0 X163.884 Y152.868584
G0 X163.528 Y153.387892 Z1
G0 X163.172 Y153.943161
G0 X162.816 Y154.5322 Z1
G0 X162.46 Y155.152684 Z1
G0 X162.104 Y155.802165
G0 X161.748 Y156.478079 Z1
G0 X161.392 Y157.177759
G0 X161.036 Y157.898443 Z1
G0 X160.68 Y158.637288 Z1
G0 X160.324 Y159.391376
G0 X159.968 Y160.157734 Z1
G0 X159.612 Y160.933335
G0 X159.256 Y161.715119 Z1
G0 X158.9 Y162.5 Z1
G0 X158.544 Y163.284881
G0 X158.188 Y164.066665 Z1
G0 X157.832 Y164.842266
G0 X157.476 Y165.608624 Z1
G0 X157.12 Y166.362712
G0 X156.764 Y167.101557 Z1
G0 X156.408 Y167.822241 Z1
G0 X156.052 Y168.521921
G0 X155.696 Y169.197835 Z1
G0 X155.34 Y169.847316
G0 X154.984 Y170.4678 Z1
G0 X154.628 Y171.056839 Z1
G0 X154.272 Y171.612108
G0 X153.916 Y172.131416 Z1
G0 X153.56 Y172.612712
G0 X153.204 Y173.054099 Z1
G0 X152.848 Y173.453834 Z1
G0 X152.492 Y173.810338
G0 X152.136 Y174.122206 Z1
G0 X151.78 Y174.388206
G0 X151.424 Y174.60729 Z1
G0 X151.068 Y174.778591
G0 X150.712 Y174.901434 Z1
G0 X150.356 Y174.975334 Z1
G0 X150 Y175
G0 X149.644 Y174.975334 Z1
G0 X149.288 Y174.901434
G0 X148.932 Y174.778591 Z1
G0 X148.576 Y174.60729 Z1
G0 X148.22 Y174.388206
G0 X147.864 Y174.122206 Z1
G0 X147.508 Y173.810338
G0 X147.152 Y173.453834 Z1
G0 X146.796 Y173.054099 Z1
G0 X146.44 Y172.612712
G0 X146.084 Y172.131416 Z1
G0 X145.728 Y171.612108
G0 X145.372 Y171.056839 Z1
G0 X145.016 Y170.4678 Z1
G0 X144.66 Y169.847316
G0 X144.304 Y169.197835 Z1
G0 X143.948 Y168.521921
G0 X143.592 Y167.822241 Z1
G0 X143.236 Y167.101557
G0 X142.88 Y166.362712 Z1
G0 X142.524 Y165.608624 Z1
G0 X142.168 Y164.842266
G0 X141.812 Y164.066665 Z1
G0 X141.456 Y163.284881
G0 X141.1 Y162.5 Z1
G0 X140.744 Y161.715119 Z1
G0 X140.388 Y160.933335
G0 X140.032 Y160.157734 Z1
G0 X139.676 Y159.391376
G0 X139.32 Y158.637288 Z1
G0 X138.964 Y157.898443 Z1
G0 X138.608 Y157.177759
G0 X138.252 Y156.478079 Z1
G0 X137.896 Y155.802165
G0 X137.54 Y155.152684 Z1
G0 X137.184 Y154.5322
G0 X136.828 Y153.943161 Z1
G0 X136.472 Y153.387892 Z1
G0 X136.116 Y152.868584
G0 X135.76 Y152.387288 Z1
G0 X135.404 Y151.945901
G0 X135.048 Y151.546166 Z1
G0 X134.692 Y151.189662 Z1
G0 X134.336 Y150.877794
G0 X133.98 Y150.611794 Z1
G0 X133.624 Y150.39271
G0 X133.268 Y150.221409 Z1
G0 X132.912 Y150.098566 Z1
G0 X132.556 Y150.024666
G0 X132.2 Y150 Z1
G0 X131.844 Y150.024666
G0 X131.488 Y150.098566 Z1
G0 X131.132 Y150.221409
G0 X130.776 Y150.39271 Z1
G0 X130.42 Y150.611794 Z1
G0 X130.064 Y150.877794
G0 X129.708 Y151.189662 Z1
G0 X129.352 Y151.546166
G0 X128.996 Y151.945901 Z1
G0 X128.64 Y152.387288 Z1
G0 X128.284 Y152.868584
G0 X127.928 Y153.387892 Z1
G0 X127.572 Y153.943161
G0 X127.216 Y154.5322 Z1
G0 X126.86 Y155.152684 Z1
G0 X126.504 Y155.802165
G0 X126.148 Y156.478079 Z1
G0 X125.792 Y157.177759
G0 X125.436 Y157.898443 Z1
G0 X125.08 Y158.637288
G0 X124.724 Y159.391376 Z1
G0 X124.368 Y160.157734 Z1
G0 X124.012 Y160.933335
G0 X123.656 Y161.715119 Z1
G0 X123.3 Y162.5
G0 X122.944 Y163.284881 Z1
G0 X122.588 Y164.066665 Z1
G0 X122.232 Y164.842266
G0 X121.876 Y165.608624 Z1
G0 X121.52 Y166.362712
G0 X121.164 Y167.101557 Z1
G0 X120.808 Y167.822241 Z1
G0 X120.452 Y168.521921
G0 X120.096 Y169.197835 Z1
G0 X119.74 Y169.847316
G0 X119.384 Y170.4678 Z1
G0 X119.028 Y171.056839 Z1
G0 X118.672 Y171.612108
G0 X118.316 Y172.131416 Z1
G0 X117.96 Y172.612712
G0 X117.604 Y173.054099 Z1
G0 X117.248 Y173.453834
G0 X116.892 Y173.810338 Z1
G0 X116.536 Y174.122206 Z1
G0 X116.18 Y174.388206
G0 X115.824 Y174.60729 Z1
G0 X115.468 Y174.778591
G0 X115.112 Y174.901434 Z1
G0 X114.756 Y174.975334 Z1
G0 X114.4 Y175
G0 X114.044 Y174.975334 Z1
G0 X113.688 Y174.901434
G0 X113.332 Y174.778591 Z1
G0 X112.976 Y174.60729 Z1
G0 X112.62 Y174.388206
G0 X112.264 Y174.122206 Z1
G0 X111.908 Y173.810338
G0 X111.552 Y173.453834 Z1
G0 X111.196 Y173.054099
G0 X110.84 Y172.612712 Z1
G0 X110.484 Y172.131416 Z1
G0 X110.128 Y171.612108
G0 X109.772 Y171.056839 Z1
G0 X109.416 Y170.4678
G0 X109.06 Y169.847316 Z1
G0 X108.704 Y169.197835 Z1
G0 X108.348 Y168.521921
G0 X107.992 Y167.822241 Z1
G0 X107.636 Y167.101557
G0 X107.28 Y166.362712 Z1
G0 X106.924 Y165.608624 Z1
G0 X106.568 Y164.842266
G0 X106.212 Y164.066665 Z1
G0 X105.856 Y163.284881
G0 X105.5 Y162.5 Z1
G0 X105.144 Y161.715119
G0 X104.788 Y160.933335 Z1
G0 X104.432 Y160.157734 Z1
G0 X104.076 Y159.391376
G0 X103.72 Y158.637288 Z1
G0 X103.364 Y157.898443
G0 X103.008 Y157.177759 Z1
G0 X102.652 Y156.478079 Z1
G0 X102.296 Y155.802165
G0 X101.94 Y155.152684 Z1
G0 X101.584 Y154.5322
G0 X101.228 Y153.943161 Z1
G0 X100.872 Y153.387892 Z1
G0 X100.516 Y152.868584
G0 X100.16 Y152.387288 Z1
G0 X99.804 Y151.945901
G0 X99.448 Y151.546166 Z1
G0 X99.092 Y151.189662
G0 X98.736 Y150.877794 Z1
G0 X98.38 Y150.611794 Z1
G0 X98.024 Y150.39271
G0 X97.668 Y150.221409 Z1
G0 X97.312 Y150.098566
G0 X96.956 Y150.024666 Z1
G0 X96.6 Y150 Z1
G0 X96.244 Y150.024666
G0 X95.888 Y150.098566 Z1
G0 X95.532 Y150.221409
G0 X95.176 Y150.39271 Z1
G0 X94.82 Y150.611794 Z1
G0 X94.464 Y150.877794
G0 X94.108 Y151.189662 Z1
G0 X93.752 Y151.546166
G0 X93.396 Y151.945901 Z1
G0 X93.04 Y152.387288 Z1
G0 X92.684 Y152.868584
G0 X92.328 Y153.387892 Z1
G0 X91.972 Y153.943161
G0 X91.616 Y154.5322 Z1
G0 X91.26 Y155.152684
G0 X90.904 Y155.802165 Z1
G0 X90.548 Y156.478079 Z1
G0 X90.192 Y157.177759
G0 X89.836 Y157.898443 Z1
G0 X89.48 Y158.637288
G0 X89.124 Y159.391376 Z1
G0 X88.768 Y160.157734 Z1
G0 X88.412 Y160.933335
G0 X88.056 Y161.715119 Z1
G0 X87.7 Y162.5
G0 X87.344 Y163.284881 Z1
G0 X86.988 Y164.066665 Z1
G0 X86.632 Y164.842266
G0 X86.276 Y165.608624 Z1
G0 X85.92 Y166.362712
G0 X85.564 Y167.101557 Z1
G0 X85.208 Y167.822241
G0 X84.852 Y168.521921 Z1
G0 X84.496 Y169.197835 Z1
G0 X84.14 Y169.847316
G0 X83.784 Y170.4678 Z1
G0 X83.428 Y171.056839
G0 X83.072 Y171.612108 Z1
G0 X82.716 Y172.131416 Z1
G0 X82.36 Y172.612712
G0 X82.004 Y173.054099 Z1
G0 X81.648 Y173.453834
G0 X81.292 Y173.810338 Z1
G0 X80.936 Y174.122206 Z1
G0 X80.58 Y174.388206
G0 X80.224 Y174.60729 Z1
G0 X79.868 Y174.778591
G0 X79.512 Y174.901434 Z1
G0 X79.156 Y174.975334
G0 X78.8 Y175 Z1
G0 X78.444 Y174.975334 Z1
G0 X78.088 Y174.901434
G0 X77.732 Y174.778591 Z1
G0 X77.376 Y174.60729
G0 X77.02 Y174.388206 Z1
G0 X76.664 Y174.122206 Z1
G0 X76.308 Y173.810338
G0 X75.952 Y173.453834 Z1
G0 X75.596 Y173.054099
G0 X75.24 Y172.612712 Z1
G0 X74.884 Y172.131416 Z1
G0 X74.528 Y171.612108
G0 X74.172 Y171.056839 Z1
G0 X73.816 Y170.4678
G0 X73.46 Y169.847316 Z1
G0 X73.104 Y169.197835
G0 X72.748 Y168.521921 Z1
G0 X72.392 Y167.822241 Z1
G0 X72.036 Y167.101557
G0 X71.68 Y166.362712 Z1
G0 X71.324 Y165.608624
G0 X70.968 Y164.842266 Z1
G0 X70.612 Y164.066665 Z1
G0 X70.256 Y163.284881
G0 X69.9 Y162.5 Z1
G0 X69.544 Y161.715119
G0 X69.188 Y160.933335 Z1
G0 X68.832 Y160.157734 Z1
G0 X68.476 Y159.391376
G0 X68.12 Y158.637288 Z1
G0 X67.764 Y157.898443
G0 X67.408 Y157.177759 Z1
G0 X67.052 Y156.478079 Z1
G0 X66.696 Y155.802165
G0 X66.34 Y155.152684 Z1
G0 X65.984 Y154.5322
G0 X65.628 Y153.943161 Z1
G0 X65.272 Y153.387892
G0 X64.916 Y152.868584 Z1
G0 X64.56 Y152.387288 Z1
G0 X64.204 Y151.945901
G0 X63.848 Y151.546166 Z1
G0 X63.492 Y151.189662
G0 X63.136 Y150.877794 Z1
G0 X62.78 Y150.611794 Z1
G0 X62.424 Y150.39271
G0 X62.068 Y150.221409 Z1
G0 X61.712 Y150.098566
G0 X61.356 Y150.024666 Z1
G0 X61 Y150 Z1
G0 Z1
G0 X61.356 Y150.024666 Z1
G0 X61.712 Y150.098566 Z1
G0 X62.068 Y150.221409
G0 X62.424 Y150.39271 Z1
G0 X62.78 Y150.611794 Z1
G0 X63.136 Y150.877794 Z1
G0 X63.492 Y151.189662
G0 X63.848 Y151.546166 Z1
G0 X64.204 Y151.945901 Z1
G0 X64.56 Y152.387288 Z1
G0 X64.916 Y152.868584 Z1
G0 X65.272 Y153.387892
G0 X65.628 Y153.943161 Z1
G0 X65.984 Y154.5322 Z1
G0 X66.34 Y155.152684 Z1
G0 X66.696 Y155.802165 Z1
G0 X67.052 Y156.478079
G0 X67.408 Y157.177759 Z1
G0 X67.764 Y157.898443 Z1
G0 X68.12 Y158.637288 Z1
G0 X68.476 Y159.391376
G0 X68.832 Y160.157734 Z1
G0 X69.188 Y160.933335 Z1
G0 X69.544 Y161.715119 Z1
G0 X69.9 Y162.5 Z1
G0 X70.256 Y163.284881
G0 X70.612 Y164.066665 Z1
G0 X70.968 Y164.842266 Z1
G0 X71.324 Y165.608624 Z1
G0 X71.68 Y166.362712 Z1
G0 X72.036 Y167.101557
G0 X72.392 Y167.822241 Z1
G0 X72.748 Y168.521921 Z1
G0 X73.104 Y169.197835 Z1
G0 X73.46 Y169.847316
G0 X73.816 Y170.4678 Z1
G0 X74.172 Y171.056839 Z1
G0 X74.528 Y171.612108 Z1
G0 X74.884 Y172.131416 Z1
G0 X75.24 Y172.612712
G0 X75.596 Y173.054099 Z1
G0 X75.952 Y173.453834 Z1
G0 X76.308 Y173.810338 Z1
G0 X76.664 Y174.122206 Z1
G0 X77.02 Y174.388206
G0 X77.376 Y174.60729 Z1
G0 X77.732 Y174.778591 Z1
G0 X78.088 Y174.901434 Z1
G0 X78.444 Y174.975334
G0 X78.8 Y175 Z1
G0 X79.156 Y174.975334 Z1
G0 X79.512 Y174.901434 Z1
G0 X79.868 Y174.778591 Z1
G0 X80.224 Y174.60729
G0 X80.58 Y174.388206 Z1
G0 X80.936 Y174.122206 Z1
G0 X81.292 Y173.810338 Z1
G0 X81.648 Y173.453834 Z1
G0 X82.004 Y173.054099
G0 X82.36 Y172.612712 Z1
G0 X82.716 Y172.131416 Z1
G0 X83.072 Y171.612108 Z1
G0 X83.428 Y171.056839
G0 X83.784 Y170.4678 Z1
G0 X84.14 Y169.847316 Z1
G0 X84.496 Y169.197835 Z1
G0 X84.852 Y168.521921 Z1
G0 X85.208 Y167.822241
G0 X85.564 Y167.101557 Z1
G0 X85.92 Y166.362712 Z1
G0 X86.276 Y165.608624 Z1
G0 X86.632 Y164.842266 Z1
G0 X86.988 Y164.066665
G0 X87.344 Y163.284881 Z1
G0 X87.7 Y162.5 Z1
G0 X88.056 Y161.715119 Z1
G0 X88.412 Y160.933335
G0 X88.768 Y160.157734 Z1
G0 X89.124 Y159.391376 Z1
G0 X89.48 Y158.637288 Z1
G0 X89.836 Y157.898443 Z1
G0 X90.192 Y157.177759
G0 X90.548 Y156.478079 Z1
G0 X90.904 Y155.802165 Z1
G0 X91.26 Y155.152684 Z1
G0 X91.616 Y154.5322 Z1
G0 X91.972 Y153.943161
G0 X92.328 Y153.387892 Z1
G0 X92.684 Y152.868584 Z1
G0 X93.04 Y152.387288 Z1
G0 X93.396 Y151.945901
G0 X93.752 Y151.546166 Z1
G0 X94.108 Y151.189662 Z1
G0 X94.464 Y150.877794 Z1
G0 X94.82 Y150.611794 Z1
G0 X95.176 Y150.39271
G0 X95.532 Y150.221409 Z1
G0 X95.888 Y150.098566 Z1
G0 X96.244 Y150.024666 Z1
G0 X96.6 Y150 Z1
G0 X96.956 Y150.024666
G0 X97.312 Y150.098566 Z1
G0 X97.668 Y150.221409 Z1
G0 X98.024 Y150.39271 Z1
G0 X98.38 Y150.611794
G0 X98.736 Y150.877794 Z1
G0 X99.092 Y151.189662 Z1
G0 X99.448 Y151.546166 Z1
G0 X99.804 Y151.945901 Z1
G0 X100.16 Y152.387288
G0 X100.516 Y152.868584 Z1
G0 X100.872 Y153.387892 Z1
G0 X101.228 Y153.943161 Z1
G0 X101.584 Y154.5322 Z1
G0 X101.94 Y155.152684
G0 X102.296 Y155.802165 Z1
G0 X102.652 Y156.478079 Z1
G0 X103.008 Y157.177759 Z1
G0 X103.364 Y157.898443
G0 X103.72 Y158.637288 Z1
G0 X104.076 Y159.391376 Z1
G0 X104.432 Y160.157734 Z1
G0 X104.788 Y160.933335 Z1
G0 X105.144 Y161.715119
G0 X105.5 Y162.5 Z1
G0 X105.856 Y163.284881 Z1
G0 X106.212 Y164.066665 Z1
G0 X106.568 Y164.842266 Z1
G0 X106.924 Y165.608624
G0 X107.28 Y166.362712 Z1
G0 X107.636 Y167.101557 Z1
G0 X107.992 Y167.822241 Z1
G0 X108.348 Y168.521921
G0 X108.704 Y169.197835 Z1
G0 X109.06 Y169.847316 Z1
G0 X109.416 Y170.4678 Z1
G0 X109.772 Y171.056839 Z1
G0 X110.128 Y171.612108
G0 X110.484 Y172.131416 Z1
G0 X110.84 Y172.612712 Z1
G0 X111.196 Y173.054099 Z1
G0 X111.552 Y173.453834 Z1
G0 X111.908 Y173.810338
G0 X112.264 Y174.122206 Z1
G0 X112.62 Y174.388206 Z1
G0 X112.976 Y174.60729 Z1
G0 X113.332 Y174.778591
G0 X113.688 Y174.901434 Z1
G0 X114.044 Y174.975334 Z1
G0 X114.4 Y175 Z1
G0 X114.756 Y174.975334 Z1
G0 X115.112 Y174.901434
G0 X115.468 Y174.778591 Z1
G0 X115.824 Y174.60729 Z1
G0 X116.18 Y174.388206 Z1
G0 X116.536 Y174.122206 Z1
G0 X116.892 Y173.810338
G0 X117.248 Y173.453834 Z1
G0 X117.604 Y173.054099 Z1
G0 X117.96 Y172.612712 Z1
G0 X118.316 Y172.131416
G0 X118.672 Y171.612108 Z1
G0 X119.028 Y171.056839 Z1
G0 X119.384 Y170.4678 Z1
G0 X119.74 Y169.847316 Z1
G0 X120.096 Y169.197835
G0 X120.452 Y168.521921 Z1
G0 X120.808 Y167.822241 Z1
G0 X121.164 Y167.101557 Z1
G0 X121.52 Y166.362712 Z1
G0 X121.876 Y165.608624
G0 X122.232 Y164.842266 Z1
G0 X122.588 Y164.066665 Z1
G0 X122.944 Y163.284881 Z1
G0 X123.3 Y162.5
G0 X123.656 Y161.715119 Z1
G0 X124.012 Y160.933335 Z1
G0 X124.368 Y160.157734 Z1
G0 X124.724 Y159.391376 Z1
G0 X125.08 Y158.637288
G0 X125.436 Y157.898443 Z1
G0 X125.792 Y157.177759 Z1
G0 X126.148 Y156.478079 Z1
G0 X126.504 Y155.802165 Z1
G0 X126.86 Y155.152684
G0 X127.216 Y154.5322 Z1
G0 X127.572 Y153.943161 Z1
G0 X127.928 Y153.387892 Z1
G0 X128.284 Y152.868584
G0 X128.64 Y152.387288 Z1
G0 X128.996 Y151.945901 Z1
G0 X129.352 Y151.546166 Z1
G0 X129.708 Y151.189662 Z1
G0 X130.064 Y150.877794
G0 X130.42 Y150.611794 Z1
G0 X130.776 Y150.39271 Z1
G0 X131.132 Y150.221409 Z1
G0 X131.488 Y150.098566 Z1
G0 X131.844 Y150.024666
G0 X132.2 Y150 Z1
G0 X132.556 Y150.024666 Z1
G0 X132.912 Y150.098566 Z1
G0 X133.268 Y150.221409
G0 X133.624 Y150.39271 Z1
G0 X133.98 Y150.611794 Z1
G0 X134.336 Y150.877794 Z1
G0 X134.692 Y151.189662 Z1
G0 X135.048 Y151.546166
G0 X135.404 Y151.945901 Z1
G0 X135.76 Y152.387288 Z1
G0 X136.116 Y152.868584 Z1
G0 X136.472 Y153.387892 Z1
G0 X136.828 Y153.943161
G0 X137.184 Y154.5322 Z1
G0 X137.54 Y155.152684 Z1
G0 X137.896 Y155.802165 Z1
G0 X138.252 Y156.478079
G0 X138.608 Y157.177759 Z1
G0 X138.964 Y157.898443 Z1
G0 X139.32 Y158.637288 Z1
G0 X139.676 Y159.391376 Z1
G0 X140.032 Y160.157734
G0 X140.388 Y160.933335 Z1
G0 X140.744 Y161.715119 Z1
G0 X141.1 Y162.5 Z1
G0 X141.456 Y163.284881
G0 X141.812 Y164.066665 Z1
G0 X142.168 Y164.842266 Z1
G0 X142.524 Y165.608624 Z1
G0 X142.88 Y166.362712 Z1
G0 X143.236 Y167.101557
G0 X143.592 Y167.822241 Z1
G0 X143.948 Y168.521921 Z1
G0 X144.304 Y169.197835 Z1
G0 X144.66 Y169.847316 Z1
G0 X145.016 Y170.4678
G0 X145.372 Y171.056839 Z1
G0 X145.728 Y171.612108 Z1
G0 X146.084 Y172.131416 Z1
G0 X146.44 Y172.612712
G0 X146.796 Y173.054099 Z1
G0 X147.152 Y173.453834 Z1
G0 X147.508 Y173.810338 Z1
G0 X147.864 Y174.122206 Z1
G0 X148.22 Y174.388206
G0 X148.576 Y174.60729 Z1
G0 X148.932 Y174.778591 Z1
G0 X149.288 Y174.901434 Z1
G0 X149.644 Y174.975334 Z1
G0 X150 Y175
G0 X150.356 Y174.975334 Z1
G0 X150.712 Y174.901434 Z1
G0 X151.068 Y174.778591 Z1
G0 X151.424 Y174.60729
G0 X151.78 Y174.388206 Z1
G0 X152.136 Y174.122206 Z1
G0 X152.492 Y173.810338 Z1
G0 X152.848 Y173.453834 Z1
G0 X153.204 Y173.054099
G0 X153.56 Y172.612712 Z1
G0 X153.916 Y172.131416 Z1
G0 X154.272 Y171.612108 Z1
G0 X154.628 Y171.056839 Z1
G0 X154.984 Y170.4678
G0 X155.34 Y169.847316 Z1
G0 X155.696 Y169.197835 Z1
G0 X156.052 Y168.521921 Z1
G0 X156.408 Y167.822241
G0 X156.764 Y167.101557 Z1
G0 X157.12 Y166.362712 Z1
G0 X157.476 Y165.608624 Z1
G0 X157.832 Y164.842266 Z1
G0 X158.188 Y164.066665
G0 X158.544 Y163.284881 Z1
G0 X158.9 Y162.5 Z1
G0 X159.256 Y161.715119 Z1
G0 X159.612 Y160.933335 Z1
G0 X159.968 Y160.157734
G0 X160.324 Y159.391376 Z1
G0 X160.68 Y158.637288 Z1
G0 X161.036 Y157.898443 Z1
G0 X161.392 Y157.177759
G0 X161.748 Y156.478079 Z1
G0 X162.104 Y155.802165 Z1
G0 X162.46 Y155.152684 Z1
G0 X162.816 Y154.5322 Z1
G0 X163.172 Y153.943161
G0 X163.528 Y153.387892 Z1
G0 X163.884 Y152.868584 Z1
G0 X164.24 Y152.387288 Z1
G0 X164.596 Y151.945901 Z1
G0 X164.952 Y151.546166
G0 X165.308 Y151.189662 Z1
G0 X165.664 Y150.877794 Z1
G0 X166.02 Y150.611794 Z1
G0 X166.376 Y150.39271
G0 X166.732 Y150.221409 Z1
G0 X167.088 Y150.098566 Z1
G0 X167.444 Y150.024666 Z1
G0 X167.8 Y150 Z1
G0 X168.156 Y150.024666
G0 X168.512 Y150.098566 Z1
G0 X168.868 Y150.221409 Z1
G0 X169.224 Y150.39271 Z1
G0 X169.58 Y150.611794 Z1
G0 X169.936 Y150.877794
G0 X170.292 Y151.189662 Z1
G0 X170.648 Y151.546166 Z1
G0 X171.004 Y151.945901 Z1
G0 X171.36 Y152.387288
G0 X171.716 Y152.868584 Z1
G0 X172.072 Y153.387892 Z1
G0 X172.428 Y153.943161 Z1
G0 X172.784 Y154.5322 Z1
G0 X173.14 Y155.152684
G0 X173.496 Y155.802165 Z1
G0 X173.852 Y156.478079 Z1
G0 X174.208 Y157.177759 Z1
G0 X174.564 Y157.898443 Z1
G0 X174.92 Y158.637288
G0 X175.276 Y159.391376 Z1
G0 X175.632 Y160.157734 Z1
G0 X175.988 Y160.933335 Z1
G0 X176.344 Y161.715119
G0 X176.7 Y162.5 Z1
G0 X177.056 Y163.284881 Z1
G0 X177.412 Y164.066665 Z1
G0 X177.768 Y164.842266 Z1
G0 X178.124 Y165.608624
G0 X178.48 Y166.362712 Z1
G0 X178.836 Y167.101557 Z1
G0 X179.192 Y167.822241 Z1
G0 X179.548 Y168.521921 Z1
G0 X179.904 Y169.197835
G0 X180.26 Y169.847316 Z1
G0 X180.616 Y170.4678 Z1
G0 X180.972 Y171.056839 Z1
G0 X181.328 Y171.612108
G0 X181.684 Y172.131416 Z1
G0 X182.04 Y172.612712 Z1
G0 X182.396 Y173.054099 Z1
G0 X182.752 Y173.453834 Z1
G0 X183.108 Y173.810338
G0 X183.464 Y174.122206 Z1
G0 X183.82 Y174.388206 Z1
G0 X184.176 Y174.60729 Z1
G0 X184.532 Y174.778591 Z1
G0 X184.888 Y174.901434
G0 X185.244 Y174.975334 Z1
G0 X185.6 Y175 Z1
G0 X185.956 Y174.975334 Z1
G0 X186.312 Y174.901434
G0 X186.668 Y174.778591 Z1
G0 X187.024 Y174.60729 Z1
G0 X187.38 Y174.388206 Z1
G0 X187.736 Y174.122206 Z1
G0 X188.092 Y173.810338
G0 X188.448 Y173.453834 Z1
G0 X188.804 Y173.054099 Z1
G0 X189.16 Y172.612712 Z1
G0 X189.516 Y172.131416 Z1
G0 X189.872 Y171.612108
G0 X190.228 Y171.056839 Z1
G0 X190.584 Y170.4678 Z1
G0 X190.94 Y169.847316 Z1
G0 X191.296 Y169.197835
G0 X191.652 Y168.521921 Z1
G0 X192.008 Y167.822241 Z1
G0 X192.364 Y167.101557 Z1
G0 X192.72 Y166.362712 Z1
G0 X193.076 Y165.608624
G0 X193.432 Y164.842266 Z1
G0 X193.788 Y164.066665 Z1
G0 X194.144 Y163.284881 Z1
G0 X194.5 Y162.5 Z1
G0 X194.856 Y161.715119
G0 X195.212 Y160.933335 Z1
G0 X195.568 Y160.157734 Z1
G0 X195.924 Y159.391376 Z1
G0 X196.28 Y158.637288
G0 X196.636 Y157.898443 Z1
G0 X196.992 Y157.177759 Z1
G0 X197.348 Y156.478079 Z1
G0 X197.704 Y155.802165 Z1
G0 X198.06 Y155.152684
G0 X198.416 Y154.5322 Z1
G0 X198.772 Y153.943161 Z1
G0 X199.128 Y153.387892 Z1
G0 X199.484 Y152.868584 Z1
G0 X199.84 Y152.387288
G0 X200.196 Y151.945901 Z1
G0 X200.552 Y151.546166 Z1
G0 X200.908 Y151.189662 Z1
G0 X201.264 Y150.877794
G0 X201.62 Y150.611794 Z1
G0 X201.976 Y150.39271 Z1
G0 X202.332 Y150.221409 Z1
G0 X202.688 Y150.098566 Z1
G0 X203.044 Y150.024666
G0 X203.4 Y150 Z1
G0 X203.756 Y150.024666 Z1
G0 X204.112 Y150.098566 Z1
G0 X204.468 Y150.221409 Z1
G0 X204.824 Y150.39271
G0 X205.18 Y150.611794 Z1
G0 X205.536 Y150.877794 Z1
G0 X205.892 Y151.189662 Z1
G0 X206.248 Y151.546166
G0 X206.604 Y151.945901 Z1
G0 X206.96 Y152.387288 Z1
G0 X207.316 Y152.868584 Z1
G0 X207.672 Y153.387892 Z1
G0 X208.028 Y153.943161
G0 X208.384 Y154.5322 Z1
G0 X208.74 Y155.152684 Z1
G0 X209.096 Y155.802165 Z1
G0 X209.452 Y156.478079 Z1
G0 X209.808 Y157.177759
G0 X210.164 Y157.898443 Z1
G0 X210.52 Y158.637288 Z1
G0 X210.876 Y159.391376 Z1
G0 X211.232 Y160.157734
G0 X211.588 Y160.933335 Z1
G0 X211.944 Y161.715119 Z1
G0 X212.3 Y162.5 Z1
G0 X212.656 Y163.284881 Z1
G0 X213.012 Y164.066665
G0 X213.368 Y164.842266 Z1
G0 X213.724 Y165.608624 Z1
G0 X214.08 Y166.362712 Z1
G0 X214.436 Y167.101557
G0 X214.792 Y167.822241 Z1
G0 X215.148 Y168.521921 Z1
G0 X215.504 Y169.197835 Z1
G0 X215.86 Y169.847316 Z1
G0 X216.216 Y170.4678
G0 X216.572 Y171.056839 Z1
G0 X216.928 Y171.612108 Z1
G0 X217.284 Y172.131416 Z1
G0 X217.64 Y172.612712 Z1
G0 X217.996 Y173.054099
G0 X218.352 Y173.453834 Z1
G0 X218.708 Y173.810338 Z1
G0 X219.064 Y174.122206 Z1
G0 X219.42 Y174.388206
G0 X219.776 Y174.60729 Z1
G0 X220.132 Y174.778591 Z1
G0 X220.488 Y174.901434 Z1
G0 X220.844 Y174.975334 Z1
G0 X221.2 Y175
G0 X221.556 Y174.975334 Z1
G0 X221.912 Y174.901434 Z1
G0 X222.268 Y174.778591 Z1
G0 X222.624 Y174.60729 Z1
G0 X222.98 Y174.388206
G0 X223.336 Y174.122206 Z1
G0 X223.692 Y173.810338 Z1
G0 X224.048 Y173.453834 Z1
G0 X224.404 Y173.054099
G0 X224.76 Y172.612712 Z1
G0 X225.116 Y172.131416 Z1
G0 X225.472 Y171.612108 Z1
G0 X225.828 Y171.056839 Z1
G0 X226.184 Y170.4678
G0 X226.54 Y169.847316 Z1
G0 X226.896 Y169.197835 Z1
G0 X227.252 Y168.521921 Z1
G0 X227.608 Y167.822241 Z1
G0 X227.964 Y167.101557
G0 X228.32 Y166.362712 Z1
G0 X228.676 Y165.608624 Z1
G0 X229.032 Y164.842266 Z1
G0 X229.388 Y164.066665
G0 X229.744 Y163.284881 Z1
G0 X230.1 Y162.5 Z1
G0 X230.456 Y161.715119 Z1
G0 X230.812 Y160.933335 Z1
G0 X231.168 Y160.157734
G0 X231.524 Y159.391376 Z1
G0 X231.88 Y158.637288 Z1
G0 X232.236 Y157.898443 Z1
G0 X232.592 Y157.177759 Z1
G0 X232.948 Y156.478079
G0 X233.304 Y155.802165 Z1
G0 X233.66 Y155.152684 Z1
G0 X234.016 Y154.5322 Z1
G0 X234.372 Y153.943161
G0 X234.728 Y153.387892 Z1
G0 X235.084 Y152.868584 Z1
G0 X235.44 Y152.387288 Z1
G0 X235.796 Y151.945901 Z1
G0 X236.152 Y151.546166
G0 X236.508 Y151.189662 Z1
G0 X236.864 Y150.877794 Z1
G0 X237.22 Y150.611794 Z1
G0 X237.576 Y150.39271 Z1
G0 X237.932 Y150.221409
G0 X238.288 Y150.098566 Z1
G0 X238.644 Y150.024666 Z1
G0 X239 Y150 Z1
Section 4
G4 P6000 ; pause for 6 seconds
G0 F3000 Z1
G0 X61
G0 X239
G0 X61
G0 X239
G0 X61
G0 X239
G0 X61
G0 X239
G0 X61
G0 X239
G4 P6000 ; pause for 6 seconds
G0 F6000 X61
G0 X239
G0 X61
G0 X239
G0 X61
G0 X239
G0 X61
G0 X239
G0 X61
G0 X239
G0 X61
G0 X239
G0 X61
G0 X239
G0 X61
G0 X239
G4 P6000 ; pause for 6 seconds
G0 F9000 X61
G0 X239
G0 X61
G0 X239
G0 X61
G0 X239
G0 X61
G0 X239
G0 X61
G0 X239
G0 X61
G0 X239
G0 X61
G0 X239
G0 X61
G0 X239
G4 P6000 ; pause for 6 seconds
G0 F12000 X61
G0 X239
G0 X61
G0 X239
G0 X61
G0 X239
G0 X61
G0 X239
G0 X61
G0 X239
G0 X61
G0 X239
G0 X61
G0 X239
G0 X61
G0 X239
G4 P6000 ; pause for 6 seconds
G0 F15000 X61
G0 X239
G0 X61
G0 X239
G0 X61
G0 X239
G0 X61
G0 X239
G0 X61
G0 X239
G0 X61
G0 X239
G0 X61
G0 X239
G0 X61
G0 X239
G4 P6000 ; pause for 6 seconds
G0 F18000 X61
G0 X239
G0 X61
G0 X239
G0 X61
G0 X239
G0 X61
G0 X239
G0 X61
G0 X239
G0 X61
G0 X239
G0 X61
G0 X239
G0 X61
G0 X239
G4 P6000 ; pause for 6 seconds
G0 F21000 X61
G0 X239
G0 X61
G0 X239
G0 X61
G0 X239
G0 X61
G0 X239
G0 X61
G0 X239
G0 X61
G0 X239
G0 X61
G0 X239
G0 X61
G0 X239
G4 P6000 ; pause for 6 seconds
G0 F24000 X61
G0 X239
G0 X61
G0 X239
G0 X61
G0 X239
G0 X61
G0 X239
G0 X61
G0 X239
G0 X61
G0 X239
G0 X61
G0 X239
G0 X61
G0 X239
G4 P6000 ; pause for 6 seconds
G0 F27000 X61
G0 X239
G0 X61
G0 X239
G0 X61
G0 X239
G0 X61
G0 X239
G0 X61
G0 X239
G0 X61
G0 X239
G0 X61
G0 X239
G0 X61
G0 X239
G4 P6000 ; pause for 6 seconds
G0 F30000 X61
G0 X239
G0 X61
G0 X239
G0 X61
G0 X239
G0 X61
G0 X239
G0 X61
G0 X239
G0 X61
G0 X239
G0 X61
G0 X239
G0 X61
G0 X239
G4 P6000 ; pause for 6 seconds
Section 5
G0 F6000 X159.56 Y130
G0 X181.61 Y144.17
G0 X172.12 Y140.6
G0 X153.9 Y111.57
G0 X173.03 Y157.88
G0 X163.75 Y123.58
G0 X173.17 Y130.44
G0 X169.56 Y164.29
G0 X187.14 Y158.6
G0 X180.79 Y151.23
G0 X194.2 Y147.51
G0 X196.11 Y142.09
G0 X190.57 Y122.62
G0 X160.47 Y125.11
G0 X175.76 Y162.23
G0 X185.33 Y112.94
G0 X180.74 Y100.77
G0 X169.06 Y102.68
G0 X192.6 Y111.91
G0 X197.48 Y123.56
G0 X188.94 Y133.6
G0 X194.37 Y144.99
G0 X183.27 Y174.86
G0 X195.61 Y159.62
G0 X161.94 Y148.02
G0 X144.97 Y154.66
G0 X125.74 Y145
G0 X102.24 Y129.25
G0 X103.02 Y140.41
G0 X120.07 Y163.71
G0 X106.25 Y159.02
G0 X151.24 Y179.9
G0 X129.68 Y182.05
G0 X133.56 Y194.64
G0 X104.91 Y170.54
G0 X109.53 Y156.55
G0 X102.51 Y163.38
G0 X100.11 Y183.15
G0 X104.55 Y196.25
G0 X105.02 Y198.55
G0 X92.81 Y186.11
G0 X111.11 Y184.14
G0 X144.3 Y187.41
G0 X153.48 Y191.77
G0 X147.36 Y193.22
G0 X175.57 Y181.77
G0 X182.51 Y190.12
G0 X160.08 Y198.09
G0 X155.28 Y195.01
G0 X177.37 Y188.77
G0 X178.76 Y198.92
G0 X159.11 Y191.44
G0 X144.02 Y192.89
G0 X156.01 Y193.66
G0 X157.09 Y185.63
G0 X132.87 Y194.18
G0 X171.5 Y190.49
G0 X179.01 Y189.56
G0 X172.38 Y173.92
G0 X183.05 Y190.76
G0 X154.32 Y179.73
G0 X139.41 Y174.19
G0 X61 Y61
G4 P6000 ; pause for 6 seconds
Section 6
G0 F2000 X239
G4 P6000 ; pause for 6 seconds
G0 F3000 Y239
G0 Y61
G0 Y239
G0 Y61
G0 Y239
G0 Y61
G0 Y239
G0 Y61
G0 Y239
G0 Y61
G4 P6000 ; pause for 6 seconds
G0 F6000 Y239
G0 Y61
G0 Y239
G0 Y61
G0 Y239
G0 Y61
G0 Y239
G0 Y61
G0 Y239
G0 Y61
G4 P6000 ; pause for 6 seconds
G0 F3000 X112 Y187
G0 X239 Y61
G0 X112 Y187
G0 X239 Y61
G0 X112 Y187
G0 X239 Y61
G0 X112 Y187
G0 X239 Y61
G0 X112 Y187
G0 X239 Y61
G4 P6000 ; pause for 6 seconds
G0 F6000 X112 Y187
G0 X239 Y61
G0 X112 Y187
G0 X239 Y61
G0 X112 Y187
G0 X239 Y61
G0 X112 Y187
G0 X239 Y61
G0 X112 Y187
G0 X239 Y61
G4 P6000 ; pause for 6 seconds
;===== date: 2025/05/16 =====================
;===== H2D =====================
G392 S0 ;turn off nozzle clog detect
M993 A0 B0 C0 ; nozzle cam detection not allowed.

M400 ; wait for buffer to clear

G90 ; absolute positioning
M141 S0 ; turn off chamber heating
M140 S0 ; turn off bed
M106 S0 ; turn off fan
M106 P2 S0 ; turn off remote part cooling fan
M106 P3 S0 ; turn off chamber cooling fan


M104 S0 T0; turn off hotend
M104 S0 T1; turn off hotend

M400 ; wait all motion done
M17 S ; enable steppers
M17 Z0.4 ; lower z motor current to reduce impact if there is something in the bottom
{if (max_layer_z + 100.0) < 320} ; check height limit
    G1 Z{max_layer_z + 100.0} F600 ; move Z up
    G1 Z{max_layer_z +98.0} ; move Z down slightly
{else} ; otherwise
    G1 Z320 F600 ; move Z to max
    G1 Z320 ; ensure Z at max
{endif} ; end check
M400 P100 ; wait 100ms
M17 R ; restore z current

M220 S100  ; Reset feedrate magnitude
M201.2 K1.0 ; Reset acc magnitude
M73.2   R1.0 ;Reset left time magnitude
M1002 set_gcode_claim_speed_level : 0 ; reset speed claim

M1015.4 S0 K0 ;disable air printing detect

M400 ; wait for buffer
M18 ; disable steppers
