; HEADER_BLOCK_START
; BambuStudio 02.00.01.50
; model printing time: 36s; total estimated time: 5m 49s
; total layer number: 3
; total filament length [mm] : 3.24
; total filament volume [cm^3] : 7.80
; total filament weight [g] : 0.01
; filament_density: 1.26
; filament_diameter: 1.75
; max_z_height: 1.20
; HEADER_BLOCK_END

; CONFIG_BLOCK_START
default_acceleration = 10000
default_jerk = 0
machine_max_acceleration_travel = 10000,10000
machine_max_acceleration_x = 10000,10000
machine_max_acceleration_y = 10000,10000
machine_max_acceleration_z = 10000,10000
machine_max_jerk_x = 0
machine_max_jerk_y = 0
machine_max_jerk_z = 0
machine_max_speed_x = 500,200
machine_max_speed_y = 500,200
machine_max_speed_z = 100,200
travel_acceleration = 10000
travel_jerk = 0
travel_speed = 500
travel_speed_z = 100
; CONFIG_BLOCK_END

; EXECUTABLE_BLOCK_START
M73 P0 R8
M201 X10000 Y10000 Z10000 E5000
M203 X500 Y500 Z100 E30
M204 P10000 R10000 T10000
M205 X0 Y0 Z0 E0
M106 S0
M106 P2 S0
M104 S1 ; set nozzle temperature
; FEATURE: Custom
;===== machine: A1 mini =========================
;===== date: 20240620 =====================

;===== start to heat heatbead&hotend==========
M1002 gcode_claim_action : 2
M1002 set_filament_type:PLA

G392 S0 ;turn off clog detect
M9833.2
;=====start printer sound ===================

;=====avoid end stop =================
G91
G380 S2 Z30 F1200
G380 S3 Z-20 F1200
G1 Z5 F1200
G90

;===== reset machine status =================
M204 S10000

M630 S0 P0
G91
M17 Z0.3 ; lower the z-motor current

G90
M17 X0.7 Y0.9 Z0.5 ; reset motor current to default
M960 S5 P1 ; turn on logo lamp
G90
M83
M220 S100 ;Reset Feedrate
M221 S100 ;Reset Flowrate
M73.2   R1.0 ;Reset left time magnitude
;====== cog noise reduction=================
M982.2 S1 ; turn on cog noise reduction

;===== prepare print temperature and material ==========
M400
M18
M400
M17
M17 X0.9 Y0.9 Z1.4 ; Set higher motor currents
M400
G28 X

M211 X0 Y0 Z0 ;turn off soft endstop ; turn off soft endstop to prevent protential logic problem

M975 S0 ; turn on


M620 M ;enable remap
M620 S0A   ; switch material if AMS exist
    G392 S0 ;turn on clog detect
    M1002 gcode_claim_action : 4
    M400
    M1002 set_filament_type:UNKNOWN
    M400
    T0
    M400
    M620.1 E F12.4725 T0
    ;M109 S250 ;set nozzle to common flush temp
    M106 P1 S0
    G92 E0
M73 P8 R5
    M400
    M1002 set_filament_type:PLA
    ;M104 S0
    G92 E0
    M400
    M106 P1 S178
    G92 E0
M73 P12 R5
    G92 E0

M73 P81 R1
    G392 S0 ;turn off clog detect
M621 S0A

M400
M106 P1 S0


;===== wait heatbed  ====================
M1002 gcode_claim_action : 2


M73 P89 R0
G1 Z5 F3000
G29.2 S1
;===== bed leveling ==================================

;===== bed leveling end ================================

;===== home after wipe mouth============================
M1002 judge_flag g29_before_print_flag
M622 J0

    M1002 gcode_claim_action : 13
    G28 T145

M623

;===== home after wipe mouth end =======================

M975 S0 ; turn on vibration supression
;===== nozzle load line ===============================

;===== extrude cali test ===============================

;========turn off light and wait extrude temperature =============
M1002 gcode_claim_action : 0

M400 ; wait all motion done before implement the emprical L parameters

;===== for Textured PEI Plate , lower the nozzle as the nozzle was touching topmost of the texture when homing ==
;curr_bed_type=Textured PEI Plate

G29.1 Z-0.02 ; for Textured PEI Plate


M960 S1 P0 ; turn off laser
M960 S2 P0 ; turn off laser
M106 S0 ; turn off fan
M106 P2 S0 ; turn off big fan
M106 P3 S0 ; turn off chamber fan

M975 S0 ; turn on mech mode supression
G90
M83
T1000

M211 X0 Y0 Z0 ;turn off soft endstop
M1007 S1

; xxxxx - End of start code




; Time to print!!!!!
; GCode created with FullControl - tell us what you're printing!
; info@fullcontrol.xyz or tag FullControlXYZ on Twitter/Instagram/LinkedIn/Reddit/TikTok
G0 F6000 X1 Y1 Z1
; Fastest axis bed size: 180, Slowest Axis bed size: 180
Section calibration
G4 P6000 ; pause for 6 seconds
G0 F3000 X179 Z179
G4 P6000 ; pause for 6 seconds
G0 X70.967013 Z8.266008
G4 P6000 ; pause for 6 seconds
G0 X130.70669 Z123.833192
G4 P6000 ; pause for 6 seconds
G0 X1 Z68.715972
G4 P6000 ; pause for 6 seconds
G0 X179 Z122.185127
G4 P6000 ; pause for 6 seconds
G0 X1 Z122.520755
G4 P6000 ; pause for 6 seconds
G0 X179 Z1
G4 P6000 ; pause for 6 seconds
G0 X53.630533 Z122.248673
G4 P6000 ; pause for 6 seconds
G0 X179 Z62.909732
G4 P6000 ; pause for 6 seconds
G0 X1 Z179
G4 P6000 ; pause for 6 seconds
G0 X132.902012 Z1.125735
G4 P6000 ; pause for 6 seconds
G0 X124.599356 Z175.093818
G4 P6000 ; pause for 6 seconds
G0 X73.956498 Z56.285734
G4 P6000 ; pause for 6 seconds
G0 X68.409094 Z177.336122
G4 P6000 ; pause for 6 seconds
G0 X119.389211 Z65.024379
G4 P6000 ; pause for 6 seconds
G0 X1 Z1
Section 1
G4 P6000 ; pause for 6 seconds
G0 F6000 X179
G0 X89.5 Z179
G0 X1 Z1
G4 P6000 ; pause for 6 seconds
G0 X1
G0 X5.368339 Z1.05361
G0 X9.734046 Z1.214409
G0 X14.094492 Z1.482299
G0 X18.447051 Z1.857119
G0 X22.7891 Z2.338643
G0 X27.118024 Z2.926581
G0 X31.431216 Z3.62058
G0 X35.726077 Z4.42022
G0 X40.000021 Z5.325021
G0 X44.250472 Z6.334437
G0 X48.474871 Z7.44786
G0 X52.670673 Z8.66462
G0 X56.83535 Z9.983984
G0 X60.966394 Z11.405156
G0 X65.061317 Z12.927282
G0 X69.117651 Z14.549443
G0 X73.132954 Z16.270663
G0 X77.104807 Z18.089906
G0 X81.030817 Z20.006074
G0 X84.908619 Z22.018015
G0 X88.735878 Z24.124516
G0 X92.510288 Z26.324307
G0 X96.229576 Z28.616065
G0 X99.891501 Z30.998409
G0 X103.493858 Z33.469903
G0 X107.034476 Z36.029059
G0 X110.511223 Z38.674336
G0 X113.922005 Z41.404139
G0 X117.264766 Z44.216825
G0 X120.537494 Z47.1107
G0 X123.738217 Z50.084019
G0 X126.865007 Z53.134993
G0 X129.915981 Z56.261783
G0 X132.8893 Z59.462506
G0 X135.783175 Z62.735234
G0 X138.595861 Z66.077995
G0 X141.325664 Z69.488777
G0 X143.970941 Z72.965524
G0 X146.530097 Z76.506142
G0 X149.001591 Z80.108499
G0 X151.383935 Z83.770424
G0 X153.675693 Z87.489712
G0 X155.875484 Z91.264122
G0 X157.981985 Z95.091381
G0 X159.993926 Z98.969183
G0 X161.910094 Z102.895193
G0 X163.729337 Z106.867046
G0 X165.450557 Z110.882349
G0 X167.072718 Z114.938683
G0 X168.594844 Z119.033606
G0 X170.016016 Z123.16465
G0 X171.33538 Z127.329327
G0 X172.55214 Z131.525129
G0 X173.665563 Z135.749528
G0 X174.674979 Z139.999979
G0 X175.57978 Z144.273923
G0 X176.37942 Z148.568784
G0 X177.073419 Z152.881976
G0 X177.661357 Z157.2109
G0 X178.142881 Z161.552949
G0 X178.517701 Z165.905508
G0 X178.785591 Z170.265954
G0 X178.94639 Z174.631661
G0 X179 Z179
G0 Z179
G0 X174.631661 Z178.94639
G0 X170.265954 Z178.785591
G0 X165.905508 Z178.517701
G0 X161.552949 Z178.142881
G0 X157.2109 Z177.661357
G0 X152.881976 Z177.073419
G0 X148.568784 Z176.37942
G0 X144.273923 Z175.57978
G0 X139.999979 Z174.674979
G0 X135.749528 Z173.665563
G0 X131.525129 Z172.55214
G0 X127.329327 Z171.33538
G0 X123.16465 Z170.016016
G0 X119.033606 Z168.594844
G0 X114.938683 Z167.072718
G0 X110.882349 Z165.450557
G0 X106.867046 Z163.729337
G0 X102.895193 Z161.910094
G0 X98.969183 Z159.993926
G0 X95.091381 Z157.981985
G0 X91.264122 Z155.875484
G0 X87.489712 Z153.675693
G0 X83.770424 Z151.383935
G0 X80.108499 Z149.001591
G0 X76.506142 Z146.530097
G0 X72.965524 Z143.970941
G0 X69.488777 Z141.325664
G0 X66.077995 Z138.595861
G0 X62.735234 Z135.783175
G0 X59.462506 Z132.8893
G0 X56.261783 Z129.915981
G0 X53.134993 Z126.865007
G0 X50.084019 Z123.738217
G0 X47.1107 Z120.537494
G0 X44.216825 Z117.264766
G0 X41.404139 Z113.922005
G0 X38.674336 Z110.511223
G0 X36.029059 Z107.034476
G0 X33.469903 Z103.493858
G0 X30.998409 Z99.891501
G0 X28.616065 Z96.229576
G0 X26.324307 Z92.510288
G0 X24.124516 Z88.735878
G0 X22.018015 Z84.908619
G0 X20.006074 Z81.030817
G0 X18.089906 Z77.104807
G0 X16.270663 Z73.132954
G0 X14.549443 Z69.117651
G0 X12.927282 Z65.061317
G0 X11.405156 Z60.966394
G0 X9.983984 Z56.83535
G0 X8.66462 Z52.670673
G0 X7.44786 Z48.474871
G0 X6.334437 Z44.250472
G0 X5.325021 Z40.000021
G0 X4.42022 Z35.726077
G0 X3.62058 Z31.431216
G0 X2.926581 Z27.118024
G0 X2.338643 Z22.7891
G0 X1.857119 Z18.447051
G0 X1.482299 Z14.094492
G0 X1.214409 Z9.734046
G0 X1.05361 Z5.368339
G0 X1 Z1
G4 P6000 ; pause for 6 seconds
G0 F2000 X179 Z90
G4 P6000 ; pause for 6 seconds
G0 F6000 X178.644 Y1 Z90.024666
G0 X178.288 Z90.098566
G0 X177.932 Y1 Z90.221409
G0 X177.576 Z90.39271
G0 X177.22 Y1 Z90.611794
G0 X176.864 Y1 Z90.877794
G0 X176.508 Z91.189662
G0 X176.152 Y1 Z91.546166
G0 X175.796 Z91.945901
G0 X175.44 Y1 Z92.387288
G0 X175.084 Z92.868584
G0 X174.728 Y1 Z93.387892
G0 X174.372 Y1 Z93.943161
G0 X174.016 Z94.5322
G0 X173.66 Y1 Z95.152684
G0 X173.304 Z95.802165
G0 X172.948 Y1 Z96.478079
G0 X172.592 Y1 Z97.177759
G0 X172.236 Z97.898443
G0 X171.88 Y1 Z98.637288
G0 X171.524 Z99.391376
G0 X171.168 Y1 Z100.157734
G0 X170.812 Y1 Z100.933335
G0 X170.456 Z101.715119
G0 X170.1 Y1 Z102.5
G0 X169.744 Z103.284881
G0 X169.388 Y1 Z104.066665
G0 X169.032 Z104.842266
G0 X168.676 Y1 Z105.608624
G0 X168.32 Y1 Z106.362712
G0 X167.964 Z107.101557
G0 X167.608 Y1 Z107.822241
G0 X167.252 Z108.521921
G0 X166.896 Y1 Z109.197835
G0 X166.54 Y1 Z109.847316
G0 X166.184 Z110.4678
G0 X165.828 Y1 Z111.056839
G0 X165.472 Z111.612108
G0 X165.116 Y1 Z112.131416
G0 X164.76 Y1 Z112.612712
G0 X164.404 Z113.054099
G0 X164.048 Y1 Z113.453834
G0 X163.692 Z113.810338
G0 X163.336 Y1 Z114.122206
G0 X162.98 Y1 Z114.388206
G0 X162.624 Z114.60729
G0 X162.268 Y1 Z114.778591
G0 X161.912 Z114.901434
G0 X161.556 Y1 Z114.975334
G0 X161.2 Z115
G0 X160.844 Y1 Z114.975334
G0 X160.488 Y1 Z114.901434
G0 X160.132 Z114.778591
G0 X159.776 Y1 Z114.60729
G0 X159.42 Z114.388206
G0 X159.064 Y1 Z114.122206
G0 X158.708 Y1 Z113.810338
G0 X158.352 Z113.453834
G0 X157.996 Y1 Z113.054099
G0 X157.64 Z112.612712
G0 X157.284 Y1 Z112.131416
G0 X156.928 Y1 Z111.612108
G0 X156.572 Z111.056839
G0 X156.216 Y1 Z110.4678
G0 X155.86 Z109.847316
G0 X155.504 Y1 Z109.197835
G0 X155.148 Z108.521921
G0 X154.792 Y1 Z107.822241
G0 X154.436 Y1 Z107.101557
G0 X154.08 Z106.362712
G0 X153.724 Y1 Z105.608624
G0 X153.368 Z104.842266
G0 X153.012 Y1 Z104.066665
G0 X152.656 Y1 Z103.284881
G0 X152.3 Z102.5
G0 X151.944 Y1 Z101.715119
G0 X151.588 Z100.933335
G0 X151.232 Y1 Z100.157734
G0 X150.876 Y1 Z99.391376
G0 X150.52 Z98.637288
G0 X150.164 Y1 Z97.898443
G0 X149.808 Z97.177759
G0 X149.452 Y1 Z96.478079
G0 X149.096 Z95.802165
G0 X148.74 Y1 Z95.152684
G0 X148.384 Y1 Z94.5322
G0 X148.028 Z93.943161
G0 X147.672 Y1 Z93.387892
G0 X147.316 Z92.868584
G0 X146.96 Y1 Z92.387288
G0 X146.604 Y1 Z91.945901
G0 X146.248 Z91.546166
G0 X145.892 Y1 Z91.189662
G0 X145.536 Z90.877794
G0 X145.18 Y1 Z90.611794
G0 X144.824 Y1 Z90.39271
G0 X144.468 Z90.221409
G0 X144.112 Y1 Z90.098566
G0 X143.756 Z90.024666
G0 X143.4 Y1 Z90
G0 X143.044 Z90.024666
G0 X142.688 Y1 Z90.098566
G0 X142.332 Y1 Z90.221409
G0 X141.976 Z90.39271
G0 X141.62 Y1 Z90.611794
G0 X141.264 Z90.877794
G0 X140.908 Y1 Z91.189662
G0 X140.552 Y1 Z91.546166
G0 X140.196 Z91.945901
G0 X139.84 Y1 Z92.387288
G0 X139.484 Z92.868584
G0 X139.128 Y1 Z93.387892
G0 X138.772 Y1 Z93.943161
G0 X138.416 Z94.5322
G0 X138.06 Y1 Z95.152684
G0 X137.704 Z95.802165
G0 X137.348 Y1 Z96.478079
G0 X136.992 Y1 Z97.177759
G0 X136.636 Z97.898443
G0 X136.28 Y1 Z98.637288
G0 X135.924 Z99.391376
G0 X135.568 Y1 Z100.157734
G0 X135.212 Z100.933335
G0 X134.856 Y1 Z101.715119
G0 X134.5 Y1 Z102.5
G0 X134.144 Z103.284881
G0 X133.788 Y1 Z104.066665
G0 X133.432 Z104.842266
G0 X133.076 Y1 Z105.608624
G0 X132.72 Y1 Z106.362712
G0 X132.364 Z107.101557
G0 X132.008 Y1 Z107.822241
G0 X131.652 Z108.521921
G0 X131.296 Y1 Z109.197835
G0 X130.94 Y1 Z109.847316
G0 X130.584 Z110.4678
G0 X130.228 Y1 Z111.056839
G0 X129.872 Z111.612108
G0 X129.516 Y1 Z112.131416
G0 X129.16 Z112.612712
G0 X128.804 Y1 Z113.054099
G0 X128.448 Y1 Z113.453834
G0 X128.092 Z113.810338
G0 X127.736 Y1 Z114.122206
G0 X127.38 Z114.388206
G0 X127.024 Y1 Z114.60729
G0 X126.668 Y1 Z114.778591
G0 X126.312 Z114.901434
G0 X125.956 Y1 Z114.975334
G0 X125.6 Z115
G0 X125.244 Y1 Z114.975334
G0 X124.888 Y1 Z114.901434
G0 X124.532 Z114.778591
G0 X124.176 Y1 Z114.60729
G0 X123.82 Z114.388206
G0 X123.464 Y1 Z114.122206
G0 X123.108 Z113.810338
G0 X122.752 Y1 Z113.453834
G0 X122.396 Y1 Z113.054099
G0 X122.04 Z112.612712
G0 X121.684 Y1 Z112.131416
G0 X121.328 Z111.612108
G0 X120.972 Y1 Z111.056839
G0 X120.616 Y1 Z110.4678
G0 X120.26 Z109.847316
G0 X119.904 Y1 Z109.197835
G0 X119.548 Z108.521921
G0 X119.192 Y1 Z107.822241
G0 X118.836 Y1 Z107.101557
G0 X118.48 Z106.362712
G0 X118.124 Y1 Z105.608624
G0 X117.768 Z104.842266
G0 X117.412 Y1 Z104.066665
G0 X117.056 Z103.284881
G0 X116.7 Y1 Z102.5
G0 X116.344 Y1 Z101.715119
G0 X115.988 Z100.933335
G0 X115.632 Y1 Z100.157734
G0 X115.276 Z99.391376
G0 X114.92 Y1 Z98.637288
G0 X114.564 Y1 Z97.898443
G0 X114.208 Z97.177759
G0 X113.852 Y1 Z96.478079
G0 X113.496 Z95.802165
G0 X113.14 Y1 Z95.152684
G0 X112.784 Y1 Z94.5322
G0 X112.428 Z93.943161
G0 X112.072 Y1 Z93.387892
G0 X111.716 Z92.868584
G0 X111.36 Y1 Z92.387288
G0 X111.004 Y1 Z91.945901
G0 X110.648 Z91.546166
G0 X110.292 Y1 Z91.189662
G0 X109.936 Z90.877794
G0 X109.58 Y1 Z90.611794
G0 X109.224 Z90.39271
G0 X108.868 Y1 Z90.221409
G0 X108.512 Y1 Z90.098566
G0 X108.156 Z90.024666
G0 X107.8 Y1 Z90
G0 X107.444 Z90.024666
G0 X107.088 Y1 Z90.098566
G0 X106.732 Y1 Z90.221409
G0 X106.376 Z90.39271
G0 X106.02 Y1 Z90.611794
G0 X105.664 Z90.877794
G0 X105.308 Y1 Z91.189662
G0 X104.952 Y1 Z91.546166
G0 X104.596 Z91.945901
G0 X104.24 Y1 Z92.387288
G0 X103.884 Z92.868584
G0 X103.528 Y1 Z93.387892
G0 X103.172 Z93.943161
G0 X102.816 Y1 Z94.5322
G0 X102.46 Y1 Z95.152684
G0 X102.104 Z95.802165
G0 X101.748 Y1 Z96.478079
G0 X101.392 Z97.177759
G0 X101.036 Y1 Z97.898443
G0 X100.68 Y1 Z98.637288
G0 X100.324 Z99.391376
G0 X99.968 Y1 Z100.157734
G0 X99.612 Z100.933335
G0 X99.256 Y1 Z101.715119
G0 X98.9 Y1 Z102.5
G0 X98.544 Z103.284881
G0 X98.188 Y1 Z104.066665
G0 X97.832 Z104.842266
G0 X97.476 Y1 Z105.608624
G0 X97.12 Z106.362712
G0 X96.764 Y1 Z107.101557
G0 X96.408 Y1 Z107.822241
G0 X96.052 Z108.521921
G0 X95.696 Y1 Z109.197835
G0 X95.34 Z109.847316
G0 X94.984 Y1 Z110.4678
G0 X94.628 Y1 Z111.056839
G0 X94.272 Z111.612108
G0 X93.916 Y1 Z112.131416
G0 X93.56 Z112.612712
G0 X93.204 Y1 Z113.054099
G0 X92.848 Y1 Z113.453834
G0 X92.492 Z113.810338
G0 X92.136 Y1 Z114.122206
G0 X91.78 Z114.388206
G0 X91.424 Y1 Z114.60729
G0 X91.068 Z114.778591
G0 X90.712 Y1 Z114.901434
G0 X90.356 Y1 Z114.975334
G0 X90 Z115
G0 X89.644 Y1 Z114.975334
G0 X89.288 Z114.901434
G0 X88.932 Y1 Z114.778591
G0 X88.576 Y1 Z114.60729
G0 X88.22 Z114.388206
G0 X87.864 Y1 Z114.122206
G0 X87.508 Z113.810338
G0 X87.152 Y1 Z113.453834
G0 X86.796 Y1 Z113.054099
G0 X86.44 Z112.612712
G0 X86.084 Y1 Z112.131416
G0 X85.728 Z111.612108
G0 X85.372 Y1 Z111.056839
G0 X85.016 Y1 Z110.4678
G0 X84.66 Z109.847316
G0 X84.304 Y1 Z109.197835
G0 X83.948 Z108.521921
G0 X83.592 Y1 Z107.822241
G0 X83.236 Z107.101557
G0 X82.88 Y1 Z106.362712
G0 X82.524 Y1 Z105.608624
G0 X82.168 Z104.842266
G0 X81.812 Y1 Z104.066665
G0 X81.456 Z103.284881
G0 X81.1 Y1 Z102.5
G0 X80.744 Y1 Z101.715119
G0 X80.388 Z100.933335
G0 X80.032 Y1 Z100.157734
G0 X79.676 Z99.391376
G0 X79.32 Y1 Z98.637288
G0 X78.964 Y1 Z97.898443
G0 X78.608 Z97.177759
G0 X78.252 Y1 Z96.478079
G0 X77.896 Z95.802165
G0 X77.54 Y1 Z95.152684
G0 X77.184 Z94.5322
G0 X76.828 Y1 Z93.943161
G0 X76.472 Y1 Z93.387892
G0 X76.116 Z92.868584
G0 X75.76 Y1 Z92.387288
G0 X75.404 Z91.945901
G0 X75.048 Y1 Z91.546166
G0 X74.692 Y1 Z91.189662
G0 X74.336 Z90.877794
G0 X73.98 Y1 Z90.611794
G0 X73.624 Z90.39271
G0 X73.268 Y1 Z90.221409
G0 X72.912 Y1 Z90.098566
G0 X72.556 Z90.024666
G0 X72.2 Y1 Z90
G0 X71.844 Z90.024666
G0 X71.488 Y1 Z90.098566
G0 X71.132 Z90.221409
G0 X70.776 Y1 Z90.39271
G0 X70.42 Y1 Z90.611794
G0 X70.064 Z90.877794
G0 X69.708 Y1 Z91.189662
G0 X69.352 Z91.546166
G0 X68.996 Y1 Z91.945901
G0 X68.64 Y1 Z92.387288
G0 X68.284 Z92.868584
G0 X67.928 Y1 Z93.387892
G0 X67.572 Z93.943161
G0 X67.216 Y1 Z94.5322
G0 X66.86 Y1 Z95.152684
G0 X66.504 Z95.802165
G0 X66.148 Y1 Z96.478079
G0 X65.792 Z97.177759
G0 X65.436 Y1 Z97.898443
G0 X65.08 Z98.637288
G0 X64.724 Y1 Z99.391376
G0 X64.368 Y1 Z100.157734
G0 X64.012 Z100.933335
G0 X63.656 Y1 Z101.715119
G0 X63.3 Z102.5
G0 X62.944 Y1 Z103.284881
G0 X62.588 Y1 Z104.066665
G0 X62.232 Z104.842266
G0 X61.876 Y1 Z105.608624
G0 X61.52 Z106.362712
G0 X61.164 Y1 Z107.101557
G0 X60.808 Y1 Z107.822241
G0 X60.452 Z108.521921
G0 X60.096 Y1 Z109.197835
G0 X59.74 Z109.847316
G0 X59.384 Y1 Z110.4678
G0 X59.028 Y1 Z111.056839
G0 X58.672 Z111.612108
G0 X58.316 Y1 Z112.131416
G0 X57.96 Z112.612712
G0 X57.604 Y1 Z113.054099
G0 X57.248 Z113.453834
G0 X56.892 Y1 Z113.810338
G0 X56.536 Y1 Z114.122206
G0 X56.18 Z114.388206
G0 X55.824 Y1 Z114.60729
G0 X55.468 Z114.778591
G0 X55.112 Y1 Z114.901434
G0 X54.756 Y1 Z114.975334
G0 X54.4 Z115
G0 X54.044 Y1 Z114.975334
G0 X53.688 Z114.901434
G0 X53.332 Y1 Z114.778591
G0 X52.976 Y1 Z114.60729
G0 X52.62 Z114.388206
G0 X52.264 Y1 Z114.122206
G0 X51.908 Z113.810338
G0 X51.552 Y1 Z113.453834
G0 X51.196 Z113.054099
G0 X50.84 Y1 Z112.612712
G0 X50.484 Y1 Z112.131416
G0 X50.128 Z111.612108
G0 X49.772 Y1 Z111.056839
G0 X49.416 Z110.4678
G0 X49.06 Y1 Z109.847316
G0 X48.704 Y1 Z109.197835
G0 X48.348 Z108.521921
G0 X47.992 Y1 Z107.822241
G0 X47.636 Z107.101557
G0 X47.28 Y1 Z106.362712
G0 X46.924 Y1 Z105.608624
G0 X46.568 Z104.842266
G0 X46.212 Y1 Z104.066665
G0 X45.856 Z103.284881
G0 X45.5 Y1 Z102.5
G0 X45.144 Z101.715119
G0 X44.788 Y1 Z100.933335
G0 X44.432 Y1 Z100.157734
G0 X44.076 Z99.391376
G0 X43.72 Y1 Z98.637288
G0 X43.364 Z97.898443
G0 X43.008 Y1 Z97.177759
G0 X42.652 Y1 Z96.478079
G0 X42.296 Z95.802165
G0 X41.94 Y1 Z95.152684
G0 X41.584 Z94.5322
G0 X41.228 Y1 Z93.943161
G0 X40.872 Y1 Z93.387892
G0 X40.516 Z92.868584
G0 X40.16 Y1 Z92.387288
G0 X39.804 Z91.945901
G0 X39.448 Y1 Z91.546166
G0 X39.092 Z91.189662
G0 X38.736 Y1 Z90.877794
G0 X38.38 Y1 Z90.611794
G0 X38.024 Z90.39271
G0 X37.668 Y1 Z90.221409
G0 X37.312 Z90.098566
G0 X36.956 Y1 Z90.024666
G0 X36.6 Y1 Z90
G0 X36.244 Z90.024666
G0 X35.888 Y1 Z90.098566
G0 X35.532 Z90.221409
G0 X35.176 Y1 Z90.39271
G0 X34.82 Y1 Z90.611794
G0 X34.464 Z90.877794
G0 X34.108 Y1 Z91.189662
G0 X33.752 Z91.546166
G0 X33.396 Y1 Z91.945901
G0 X33.04 Y1 Z92.387288
G0 X32.684 Z92.868584
G0 X32.328 Y1 Z93.387892
G0 X31.972 Z93.943161
G0 X31.616 Y1 Z94.5322
G0 X31.26 Z95.152684
G0 X30.904 Y1 Z95.802165
G0 X30.548 Y1 Z96.478079
G0 X30.192 Z97.177759
G0 X29.836 Y1 Z97.898443
G0 X29.48 Z98.637288
G0 X29.124 Y1 Z99.391376
G0 X28.768 Y1 Z100.157734
G0 X28.412 Z100.933335
G0 X28.056 Y1 Z101.715119
G0 X27.7 Z102.5
G0 X27.344 Y1 Z103.284881
G0 X26.988 Y1 Z104.066665
G0 X26.632 Z104.842266
G0 X26.276 Y1 Z105.608624
G0 X25.92 Z106.362712
G0 X25.564 Y1 Z107.101557
G0 X25.208 Z107.822241
G0 X24.852 Y1 Z108.521921
G0 X24.496 Y1 Z109.197835
G0 X24.14 Z109.847316
G0 X23.784 Y1 Z110.4678
G0 X23.428 Z111.056839
G0 X23.072 Y1 Z111.612108
G0 X22.716 Y1 Z112.131416
G0 X22.36 Z112.612712
G0 X22.004 Y1 Z113.054099
G0 X21.648 Z113.453834
G0 X21.292 Y1 Z113.810338
G0 X20.936 Y1 Z114.122206
G0 X20.58 Z114.388206
G0 X20.224 Y1 Z114.60729
G0 X19.868 Z114.778591
G0 X19.512 Y1 Z114.901434
G0 X19.156 Z114.975334
G0 X18.8 Y1 Z115
G0 X18.444 Y1 Z114.975334
G0 X18.088 Z114.901434
G0 X17.732 Y1 Z114.778591
G0 X17.376 Z114.60729
G0 X17.02 Y1 Z114.388206
G0 X16.664 Y1 Z114.122206
G0 X16.308 Z113.810338
G0 X15.952 Y1 Z113.453834
G0 X15.596 Z113.054099
G0 X15.24 Y1 Z112.612712
G0 X14.884 Y1 Z112.131416
G0 X14.528 Z111.612108
G0 X14.172 Y1 Z111.056839
G0 X13.816 Z110.4678
G0 X13.46 Y1 Z109.847316
G0 X13.104 Z109.197835
G0 X12.748 Y1 Z108.521921
G0 X12.392 Y1 Z107.822241
G0 X12.036 Z107.101557
G0 X11.68 Y1 Z106.362712
G0 X11.324 Z105.608624
G0 X10.968 Y1 Z104.842266
G0 X10.612 Y1 Z104.066665
G0 X10.256 Z103.284881
G0 X9.9 Y1 Z102.5
G0 X9.544 Z101.715119
G0 X9.188 Y1 Z100.933335
G0 X8.832 Y1 Z100.157734
G0 X8.476 Z99.391376
G0 X8.12 Y1 Z98.637288
G0 X7.764 Z97.898443
G0 X7.408 Y1 Z97.177759
G0 X7.052 Y1 Z96.478079
G0 X6.696 Z95.802165
G0 X6.34 Y1 Z95.152684
G0 X5.984 Z94.5322
G0 X5.628 Y1 Z93.943161
G0 X5.272 Z93.387892
G0 X4.916 Y1 Z92.868584
G0 X4.56 Y1 Z92.387288
G0 X4.204 Z91.945901
G0 X3.848 Y1 Z91.546166
G0 X3.492 Z91.189662
G0 X3.136 Y1 Z90.877794
G0 X2.78 Y1 Z90.611794
G0 X2.424 Z90.39271
G0 X2.068 Y1 Z90.221409
G0 X1.712 Z90.098566
G0 X1.356 Y1 Z90.024666
G0 X1 Y1 Z90
G0 Y1
G0 X1.356 Y1 Z90.024666
G0 X1.712 Y1 Z90.098566
G0 X2.068 Z90.221409
G0 X2.424 Y1 Z90.39271
G0 X2.78 Y1 Z90.611794
G0 X3.136 Y1 Z90.877794
G0 X3.492 Z91.189662
G0 X3.848 Y1 Z91.546166
G0 X4.204 Y1 Z91.945901
G0 X4.56 Y1 Z92.387288
G0 X4.916 Y1 Z92.868584
G0 X5.272 Z93.387892
G0 X5.628 Y1 Z93.943161
G0 X5.984 Y1 Z94.5322
G0 X6.34 Y1 Z95.152684
G0 X6.696 Y1 Z95.802165
G0 X7.052 Z96.478079
G0 X7.408 Y1 Z97.177759
G0 X7.764 Y1 Z97.898443
G0 X8.12 Y1 Z98.637288
G0 X8.476 Z99.391376
G0 X8.832 Y1 Z100.157734
G0 X9.188 Y1 Z100.933335
G0 X9.544 Y1 Z101.715119
G0 X9.9 Y1 Z102.5
G0 X10.256 Z103.284881
G0 X10.612 Y1 Z104.066665
G0 X10.968 Y1 Z104.842266
G0 X11.324 Y1 Z105.608624
G0 X11.68 Y1 Z106.362712
G0 X12.036 Z107.101557
G0 X12.392 Y1 Z107.822241
G0 X12.748 Y1 Z108.521921
G0 X13.104 Y1 Z109.197835
G0 X13.46 Z109.847316
G0 X13.816 Y1 Z110.4678
G0 X14.172 Y1 Z111.056839
G0 X14.528 Y1 Z111.612108
G0 X14.884 Y1 Z112.131416
G0 X15.24 Z112.612712
G0 X15.596 Y1 Z113.054099
G0 X15.952 Y1 Z113.453834
G0 X16.308 Y1 Z113.810338
G0 X16.664 Y1 Z114.122206
G0 X17.02 Z114.388206
G0 X17.376 Y1 Z114.60729
G0 X17.732 Y1 Z114.778591
G0 X18.088 Y1 Z114.901434
G0 X18.444 Z114.975334
G0 X18.8 Y1 Z115
G0 X19.156 Y1 Z114.975334
G0 X19.512 Y1 Z114.901434
G0 X19.868 Y1 Z114.778591
G0 X20.224 Z114.60729
G0 X20.58 Y1 Z114.388206
G0 X20.936 Y1 Z114.122206
G0 X21.292 Y1 Z113.810338
G0 X21.648 Y1 Z113.453834
G0 X22.004 Z113.054099
G0 X22.36 Y1 Z112.612712
G0 X22.716 Y1 Z112.131416
G0 X23.072 Y1 Z111.612108
G0 X23.428 Z111.056839
G0 X23.784 Y1 Z110.4678
G0 X24.14 Y1 Z109.847316
G0 X24.496 Y1 Z109.197835
G0 X24.852 Y1 Z108.521921
G0 X25.208 Z107.822241
G0 X25.564 Y1 Z107.101557
G0 X25.92 Y1 Z106.362712
G0 X26.276 Y1 Z105.608624
G0 X26.632 Y1 Z104.842266
G0 X26.988 Z104.066665
G0 X27.344 Y1 Z103.284881
G0 X27.7 Y1 Z102.5
G0 X28.056 Y1 Z101.715119
G0 X28.412 Z100.933335
G0 X28.768 Y1 Z100.157734
G0 X29.124 Y1 Z99.391376
G0 X29.48 Y1 Z98.637288
G0 X29.836 Y1 Z97.898443
G0 X30.192 Z97.177759
G0 X30.548 Y1 Z96.478079
G0 X30.904 Y1 Z95.802165
G0 X31.26 Y1 Z95.152684
G0 X31.616 Y1 Z94.5322
G0 X31.972 Z93.943161
G0 X32.328 Y1 Z93.387892
G0 X32.684 Y1 Z92.868584
G0 X33.04 Y1 Z92.387288
G0 X33.396 Z91.945901
G0 X33.752 Y1 Z91.546166
G0 X34.108 Y1 Z91.189662
G0 X34.464 Y1 Z90.877794
G0 X34.82 Y1 Z90.611794
G0 X35.176 Z90.39271
G0 X35.532 Y1 Z90.221409
G0 X35.888 Y1 Z90.098566
G0 X36.244 Y1 Z90.024666
G0 X36.6 Y1 Z90
G0 X36.956 Z90.024666
G0 X37.312 Y1 Z90.098566
G0 X37.668 Y1 Z90.221409
G0 X38.024 Y1 Z90.39271
G0 X38.38 Z90.611794
G0 X38.736 Y1 Z90.877794
G0 X39.092 Y1 Z91.189662
G0 X39.448 Y1 Z91.546166
G0 X39.804 Y1 Z91.945901
G0 X40.16 Z92.387288
G0 X40.516 Y1 Z92.868584
G0 X40.872 Y1 Z93.387892
G0 X41.228 Y1 Z93.943161
G0 X41.584 Y1 Z94.5322
G0 X41.94 Z95.152684
G0 X42.296 Y1 Z95.802165
G0 X42.652 Y1 Z96.478079
G0 X43.008 Y1 Z97.177759
G0 X43.364 Z97.898443
G0 X43.72 Y1 Z98.637288
G0 X44.076 Y1 Z99.391376
G0 X44.432 Y1 Z100.157734
G0 X44.788 Y1 Z100.933335
G0 X45.144 Z101.715119
G0 X45.5 Y1 Z102.5
G0 X45.856 Y1 Z103.284881
G0 X46.212 Y1 Z104.066665
G0 X46.568 Y1 Z104.842266
G0 X46.924 Z105.608624
G0 X47.28 Y1 Z106.362712
G0 X47.636 Y1 Z107.101557
G0 X47.992 Y1 Z107.822241
G0 X48.348 Z108.521921
G0 X48.704 Y1 Z109.197835
G0 X49.06 Y1 Z109.847316
G0 X49.416 Y1 Z110.4678
G0 X49.772 Y1 Z111.056839
G0 X50.128 Z111.612108
G0 X50.484 Y1 Z112.131416
G0 X50.84 Y1 Z112.612712
G0 X51.196 Y1 Z113.054099
G0 X51.552 Y1 Z113.453834
G0 X51.908 Z113.810338
G0 X52.264 Y1 Z114.122206
G0 X52.62 Y1 Z114.388206
G0 X52.976 Y1 Z114.60729
G0 X53.332 Z114.778591
G0 X53.688 Y1 Z114.901434
G0 X54.044 Y1 Z114.975334
G0 X54.4 Y1 Z115
G0 X54.756 Y1 Z114.975334
G0 X55.112 Z114.901434
G0 X55.468 Y1 Z114.778591
G0 X55.824 Y1 Z114.60729
G0 X56.18 Y1 Z114.388206
G0 X56.536 Y1 Z114.122206
G0 X56.892 Z113.810338
G0 X57.248 Y1 Z113.453834
G0 X57.604 Y1 Z113.054099
G0 X57.96 Y1 Z112.612712
G0 X58.316 Z112.131416
G0 X58.672 Y1 Z111.612108
G0 X59.028 Y1 Z111.056839
G0 X59.384 Y1 Z110.4678
G0 X59.74 Y1 Z109.847316
G0 X60.096 Z109.197835
G0 X60.452 Y1 Z108.521921
G0 X60.808 Y1 Z107.822241
G0 X61.164 Y1 Z107.101557
G0 X61.52 Y1 Z106.362712
G0 X61.876 Z105.608624
G0 X62.232 Y1 Z104.842266
G0 X62.588 Y1 Z104.066665
G0 X62.944 Y1 Z103.284881
G0 X63.3 Z102.5
G0 X63.656 Y1 Z101.715119
G0 X64.012 Y1 Z100.933335
G0 X64.368 Y1 Z100.157734
G0 X64.724 Y1 Z99.391376
G0 X65.08 Z98.637288
G0 X65.436 Y1 Z97.898443
G0 X65.792 Y1 Z97.177759
G0 X66.148 Y1 Z96.478079
G0 X66.504 Y1 Z95.802165
G0 X66.86 Z95.152684
G0 X67.216 Y1 Z94.5322
G0 X67.572 Y1 Z93.943161
G0 X67.928 Y1 Z93.387892
G0 X68.284 Z92.868584
G0 X68.64 Y1 Z92.387288
G0 X68.996 Y1 Z91.945901
G0 X69.352 Y1 Z91.546166
G0 X69.708 Y1 Z91.189662
G0 X70.064 Z90.877794
G0 X70.42 Y1 Z90.611794
G0 X70.776 Y1 Z90.39271
G0 X71.132 Y1 Z90.221409
G0 X71.488 Y1 Z90.098566
G0 X71.844 Z90.024666
G0 X72.2 Y1 Z90
G0 X72.556 Y1 Z90.024666
G0 X72.912 Y1 Z90.098566
G0 X73.268 Z90.221409
G0 X73.624 Y1 Z90.39271
G0 X73.98 Y1 Z90.611794
G0 X74.336 Y1 Z90.877794
G0 X74.692 Y1 Z91.189662
G0 X75.048 Z91.546166
G0 X75.404 Y1 Z91.945901
G0 X75.76 Y1 Z92.387288
G0 X76.116 Y1 Z92.868584
G0 X76.472 Y1 Z93.387892
G0 X76.828 Z93.943161
G0 X77.184 Y1 Z94.5322
G0 X77.54 Y1 Z95.152684
G0 X77.896 Y1 Z95.802165
G0 X78.252 Z96.478079
G0 X78.608 Y1 Z97.177759
G0 X78.964 Y1 Z97.898443
G0 X79.32 Y1 Z98.637288
G0 X79.676 Y1 Z99.391376
G0 X80.032 Z100.157734
G0 X80.388 Y1 Z100.933335
G0 X80.744 Y1 Z101.715119
G0 X81.1 Y1 Z102.5
G0 X81.456 Z103.284881
G0 X81.812 Y1 Z104.066665
G0 X82.168 Y1 Z104.842266
G0 X82.524 Y1 Z105.608624
G0 X82.88 Y1 Z106.362712
G0 X83.236 Z107.101557
G0 X83.592 Y1 Z107.822241
G0 X83.948 Y1 Z108.521921
G0 X84.304 Y1 Z109.197835
G0 X84.66 Y1 Z109.847316
G0 X85.016 Z110.4678
G0 X85.372 Y1 Z111.056839
G0 X85.728 Y1 Z111.612108
G0 X86.084 Y1 Z112.131416
G0 X86.44 Z112.612712
G0 X86.796 Y1 Z113.054099
G0 X87.152 Y1 Z113.453834
G0 X87.508 Y1 Z113.810338
G0 X87.864 Y1 Z114.122206
G0 X88.22 Z114.388206
G0 X88.576 Y1 Z114.60729
G0 X88.932 Y1 Z114.778591
G0 X89.288 Y1 Z114.901434
G0 X89.644 Y1 Z114.975334
G0 X90 Z115
G0 X90.356 Y1 Z114.975334
G0 X90.712 Y1 Z114.901434
G0 X91.068 Y1 Z114.778591
G0 X91.424 Z114.60729
G0 X91.78 Y1 Z114.388206
G0 X92.136 Y1 Z114.122206
G0 X92.492 Y1 Z113.810338
G0 X92.848 Y1 Z113.453834
G0 X93.204 Z113.054099
G0 X93.56 Y1 Z112.612712
G0 X93.916 Y1 Z112.131416
G0 X94.272 Y1 Z111.612108
G0 X94.628 Y1 Z111.056839
G0 X94.984 Z110.4678
G0 X95.34 Y1 Z109.847316
G0 X95.696 Y1 Z109.197835
G0 X96.052 Y1 Z108.521921
G0 X96.408 Z107.822241
G0 X96.764 Y1 Z107.101557
G0 X97.12 Y1 Z106.362712
G0 X97.476 Y1 Z105.608624
G0 X97.832 Y1 Z104.842266
G0 X98.188 Z104.066665
G0 X98.544 Y1 Z103.284881
G0 X98.9 Y1 Z102.5
G0 X99.256 Y1 Z101.715119
G0 X99.612 Y1 Z100.933335
G0 X99.968 Z100.157734
G0 X100.324 Y1 Z99.391376
G0 X100.68 Y1 Z98.637288
G0 X101.036 Y1 Z97.898443
G0 X101.392 Z97.177759
G0 X101.748 Y1 Z96.478079
G0 X102.104 Y1 Z95.802165
G0 X102.46 Y1 Z95.152684
G0 X102.816 Y1 Z94.5322
G0 X103.172 Z93.943161
G0 X103.528 Y1 Z93.387892
G0 X103.884 Y1 Z92.868584
G0 X104.24 Y1 Z92.387288
G0 X104.596 Y1 Z91.945901
G0 X104.952 Z91.546166
G0 X105.308 Y1 Z91.189662
G0 X105.664 Y1 Z90.877794
G0 X106.02 Y1 Z90.611794
G0 X106.376 Z90.39271
G0 X106.732 Y1 Z90.221409
G0 X107.088 Y1 Z90.098566
G0 X107.444 Y1 Z90.024666
G0 X107.8 Y1 Z90
G0 X108.156 Z90.024666
G0 X108.512 Y1 Z90.098566
G0 X108.868 Y1 Z90.221409
G0 X109.224 Y1 Z90.39271
G0 X109.58 Y1 Z90.611794
G0 X109.936 Z90.877794
G0 X110.292 Y1 Z91.189662
G0 X110.648 Y1 Z91.546166
G0 X111.004 Y1 Z91.945901
G0 X111.36 Z92.387288
G0 X111.716 Y1 Z92.868584
G0 X112.072 Y1 Z93.387892
G0 X112.428 Y1 Z93.943161
G0 X112.784 Y1 Z94.5322
G0 X113.14 Z95.152684
G0 X113.496 Y1 Z95.802165
G0 X113.852 Y1 Z96.478079
G0 X114.208 Y1 Z97.177759
G0 X114.564 Y1 Z97.898443
G0 X114.92 Z98.637288
G0 X115.276 Y1 Z99.391376
G0 X115.632 Y1 Z100.157734
G0 X115.988 Y1 Z100.933335
G0 X116.344 Z101.715119
G0 X116.7 Y1 Z102.5
G0 X117.056 Y1 Z103.284881
G0 X117.412 Y1 Z104.066665
G0 X117.768 Y1 Z104.842266
G0 X118.124 Z105.608624
G0 X118.48 Y1 Z106.362712
G0 X118.836 Y1 Z107.101557
G0 X119.192 Y1 Z107.822241
G0 X119.548 Y1 Z108.521921
G0 X119.904 Z109.197835
G0 X120.26 Y1 Z109.847316
G0 X120.616 Y1 Z110.4678
G0 X120.972 Y1 Z111.056839
G0 X121.328 Z111.612108
G0 X121.684 Y1 Z112.131416
G0 X122.04 Y1 Z112.612712
G0 X122.396 Y1 Z113.054099
G0 X122.752 Y1 Z113.453834
G0 X123.108 Z113.810338
G0 X123.464 Y1 Z114.122206
G0 X123.82 Y1 Z114.388206
G0 X124.176 Y1 Z114.60729
G0 X124.532 Y1 Z114.778591
G0 X124.888 Z114.901434
G0 X125.244 Y1 Z114.975334
G0 X125.6 Y1 Z115
G0 X125.956 Y1 Z114.975334
G0 X126.312 Z114.901434
G0 X126.668 Y1 Z114.778591
G0 X127.024 Y1 Z114.60729
G0 X127.38 Y1 Z114.388206
G0 X127.736 Y1 Z114.122206
G0 X128.092 Z113.810338
G0 X128.448 Y1 Z113.453834
G0 X128.804 Y1 Z113.054099
G0 X129.16 Y1 Z112.612712
G0 X129.516 Y1 Z112.131416
G0 X129.872 Z111.612108
G0 X130.228 Y1 Z111.056839
G0 X130.584 Y1 Z110.4678
G0 X130.94 Y1 Z109.847316
G0 X131.296 Z109.197835
G0 X131.652 Y1 Z108.521921
G0 X132.008 Y1 Z107.822241
G0 X132.364 Y1 Z107.101557
G0 X132.72 Y1 Z106.362712
G0 X133.076 Z105.608624
G0 X133.432 Y1 Z104.842266
G0 X133.788 Y1 Z104.066665
G0 X134.144 Y1 Z103.284881
G0 X134.5 Y1 Z102.5
G0 X134.856 Z101.715119
G0 X135.212 Y1 Z100.933335
G0 X135.568 Y1 Z100.157734
G0 X135.924 Y1 Z99.391376
G0 X136.28 Z98.637288
G0 X136.636 Y1 Z97.898443
G0 X136.992 Y1 Z97.177759
G0 X137.348 Y1 Z96.478079
G0 X137.704 Y1 Z95.802165
G0 X138.06 Z95.152684
G0 X138.416 Y1 Z94.5322
G0 X138.772 Y1 Z93.943161
G0 X139.128 Y1 Z93.387892
G0 X139.484 Y1 Z92.868584
G0 X139.84 Z92.387288
G0 X140.196 Y1 Z91.945901
G0 X140.552 Y1 Z91.546166
G0 X140.908 Y1 Z91.189662
G0 X141.264 Z90.877794
G0 X141.62 Y1 Z90.611794
G0 X141.976 Y1 Z90.39271
G0 X142.332 Y1 Z90.221409
G0 X142.688 Y1 Z90.098566
G0 X143.044 Z90.024666
G0 X143.4 Y1 Z90
G0 X143.756 Y1 Z90.024666
G0 X144.112 Y1 Z90.098566
G0 X144.468 Y1 Z90.221409
G0 X144.824 Z90.39271
G0 X145.18 Y1 Z90.611794
G0 X145.536 Y1 Z90.877794
G0 X145.892 Y1 Z91.189662
G0 X146.248 Z91.546166
G0 X146.604 Y1 Z91.945901
G0 X146.96 Y1 Z92.387288
G0 X147.316 Y1 Z92.868584
G0 X147.672 Y1 Z93.387892
G0 X148.028 Z93.943161
G0 X148.384 Y1 Z94.5322
G0 X148.74 Y1 Z95.152684
G0 X149.096 Y1 Z95.802165
G0 X149.452 Y1 Z96.478079
G0 X149.808 Z97.177759
G0 X150.164 Y1 Z97.898443
G0 X150.52 Y1 Z98.637288
G0 X150.876 Y1 Z99.391376
G0 X151.232 Z100.157734
G0 X151.588 Y1 Z100.933335
G0 X151.944 Y1 Z101.715119
G0 X152.3 Y1 Z102.5
G0 X152.656 Y1 Z103.284881
G0 X153.012 Z104.066665
G0 X153.368 Y1 Z104.842266
G0 X153.724 Y1 Z105.608624
G0 X154.08 Y1 Z106.362712
G0 X154.436 Z107.101557
G0 X154.792 Y1 Z107.822241
G0 X155.148 Y1 Z108.521921
G0 X155.504 Y1 Z109.197835
G0 X155.86 Y1 Z109.847316
G0 X156.216 Z110.4678
G0 X156.572 Y1 Z111.056839
G0 X156.928 Y1 Z111.612108
G0 X157.284 Y1 Z112.131416
G0 X157.64 Y1 Z112.612712
G0 X157.996 Z113.054099
G0 X158.352 Y1 Z113.453834
G0 X158.708 Y1 Z113.810338
G0 X159.064 Y1 Z114.122206
G0 X159.42 Z114.388206
G0 X159.776 Y1 Z114.60729
G0 X160.132 Y1 Z114.778591
G0 X160.488 Y1 Z114.901434
G0 X160.844 Y1 Z114.975334
G0 X161.2 Z115
G0 X161.556 Y1 Z114.975334
G0 X161.912 Y1 Z114.901434
G0 X162.268 Y1 Z114.778591
G0 X162.624 Y1 Z114.60729
G0 X162.98 Z114.388206
G0 X163.336 Y1 Z114.122206
G0 X163.692 Y1 Z113.810338
G0 X164.048 Y1 Z113.453834
G0 X164.404 Z113.054099
G0 X164.76 Y1 Z112.612712
G0 X165.116 Y1 Z112.131416
G0 X165.472 Y1 Z111.612108
G0 X165.828 Y1 Z111.056839
G0 X166.184 Z110.4678
G0 X166.54 Y1 Z109.847316
G0 X166.896 Y1 Z109.197835
G0 X167.252 Y1 Z108.521921
G0 X167.608 Y1 Z107.822241
G0 X167.964 Z107.101557
G0 X168.32 Y1 Z106.362712
G0 X168.676 Y1 Z105.608624
G0 X169.032 Y1 Z104.842266
G0 X169.388 Z104.066665
G0 X169.744 Y1 Z103.284881
G0 X170.1 Y1 Z102.5
G0 X170.456 Y1 Z101.715119
G0 X170.812 Y1 Z100.933335
G0 X171.168 Z100.157734
G0 X171.524 Y1 Z99.391376
G0 X171.88 Y1 Z98.637288
G0 X172.236 Y1 Z97.898443
G0 X172.592 Y1 Z97.177759
G0 X172.948 Z96.478079
G0 X173.304 Y1 Z95.802165
G0 X173.66 Y1 Z95.152684
G0 X174.016 Y1 Z94.5322
G0 X174.372 Z93.943161
G0 X174.728 Y1 Z93.387892
G0 X175.084 Y1 Z92.868584
G0 X175.44 Y1 Z92.387288
G0 X175.796 Y1 Z91.945901
G0 X176.152 Z91.546166
G0 X176.508 Y1 Z91.189662
G0 X176.864 Y1 Z90.877794
G0 X177.22 Y1 Z90.611794
G0 X177.576 Y1 Z90.39271
G0 X177.932 Z90.221409
G0 X178.288 Y1 Z90.098566
G0 X178.644 Y1 Z90.024666
G0 X179 Y1 Z90
Section 4
G4 P6000 ; pause for 6 seconds
G0 F3000 Y1
G0 X1
G0 X179
G0 X1
G0 X179
G0 X1
G0 X179
G0 X1
G0 X179
G0 X1
G0 X179
G4 P6000 ; pause for 6 seconds
G0 F6000 X1
G0 X179
G0 X1
G0 X179
G0 X1
G0 X179
G0 X1
G0 X179
G0 X1
G0 X179
G0 X1
G0 X179
G0 X1
G0 X179
G0 X1
G0 X179
G4 P6000 ; pause for 6 seconds
G0 F9000 X1
G0 X179
G0 X1
G0 X179
G0 X1
G0 X179
G0 X1
G0 X179
G0 X1
G0 X179
G0 X1
G0 X179
G0 X1
G0 X179
G0 X1
G0 X179
G4 P6000 ; pause for 6 seconds
G0 F12000 X1
G0 X179
G0 X1
G0 X179
G0 X1
G0 X179
G0 X1
G0 X179
G0 X1
G0 X179
G0 X1
G0 X179
G0 X1
G0 X179
G0 X1
G0 X179
G4 P6000 ; pause for 6 seconds
G0 F15000 X1
G0 X179
G0 X1
G0 X179
G0 X1
G0 X179
G0 X1
G0 X179
G0 X1
G0 X179
G0 X1
G0 X179
G0 X1
G0 X179
G0 X1
G0 X179
G4 P6000 ; pause for 6 seconds
G0 F18000 X1
G0 X179
G0 X1
G0 X179
G0 X1
G0 X179
G0 X1
G0 X179
G0 X1
G0 X179
G0 X1
G0 X179
G0 X1
G0 X179
G0 X1
G0 X179
G4 P6000 ; pause for 6 seconds
G0 F21000 X1
G0 X179
G0 X1
G0 X179
G0 X1
G0 X179
G0 X1
G0 X179
G0 X1
G0 X179
G0 X1
G0 X179
G0 X1
G0 X179
G0 X1
G0 X179
G4 P6000 ; pause for 6 seconds
G0 F24000 X1
G0 X179
G0 X1
G0 X179
G0 X1
G0 X179
G0 X1
G0 X179
G0 X1
G0 X179
G0 X1
G0 X179
G0 X1
G0 X179
G0 X1
G0 X179
G4 P6000 ; pause for 6 seconds
G0 F27000 X1
G0 X179
G0 X1
G0 X179
G0 X1
G0 X179
G0 X1
G0 X179
G0 X1
G0 X179
G0 X1
G0 X179
G0 X1
G0 X179
G0 X1
G0 X179
G4 P6000 ; pause for 6 seconds
G0 F30000 X1
G0 X179
G0 X1
G0 X179
G0 X1
G0 X179
G0 X1
G0 X179
G0 X1
G0 X179
G0 X1
G0 X179
G0 X1
G0 X179
G0 X1
G0 X179
G4 P6000 ; pause for 6 seconds
Section 5
G0 F6000 X99.56 Z70
G0 X121.61 Z84.17
G0 X112.12 Z80.6
G0 X93.9 Z51.57
G0 X113.03 Z97.88
G0 X103.75 Z63.58
G0 X113.17 Z70.44
G0 X109.56 Z104.29
G0 X127.14 Z98.6
G0 X120.79 Z91.23
G0 X134.2 Z87.51
G0 X136.11 Z82.09
G0 X130.57 Z62.62
G0 X100.47 Z65.11
G0 X115.76 Z102.23
G0 X125.33 Z52.94
G0 X120.74 Z40.77
G0 X109.06 Z42.68
G0 X132.6 Z51.91
G0 X137.48 Z63.56
G0 X128.94 Z73.6
G0 X134.37 Z84.99
G0 X123.27 Z114.86
G0 X135.61 Z99.62
G0 X101.94 Z88.02
G0 X84.97 Z94.66
G0 X65.74 Z85
G0 X42.24 Z69.25
G0 X43.02 Z80.41
G0 X60.07 Z103.71
G0 X46.25 Z99.02
G0 X91.24 Z119.9
G0 X69.68 Z122.05
G0 X73.56 Z134.64
G0 X44.91 Z110.54
G0 X49.53 Z96.55
G0 X42.51 Z103.38
G0 X40.11 Z123.15
G0 X44.55 Z136.25
G0 X45.02 Z138.55
G0 X32.81 Z126.11
G0 X51.11 Z124.14
G0 X84.3 Z127.41
G0 X93.48 Z131.77
G0 X87.36 Z133.22
G0 X115.57 Z121.77
G0 X122.51 Z130.12
G0 X100.08 Z138.09
G0 X95.28 Z135.01
G0 X117.37 Z128.77
G0 X118.76 Z138.92
G0 X99.11 Z131.44
G0 X84.02 Z132.89
G0 X96.01 Z133.66
G0 X97.09 Z125.63
G0 X72.87 Z134.18
G0 X111.5 Z130.49
G0 X119.01 Z129.56
G0 X112.38 Z113.92
G0 X123.05 Z130.76
G0 X94.32 Z119.73
G0 X79.41 Z114.19
G0 X1 Z1
G4 P6000 ; pause for 6 seconds
Section 6
G0 F2000 X179
G4 P6000 ; pause for 6 seconds
G0 F3000 Z179
G0 Z1
G0 Z179
G0 Z1
G0 Z179
G0 Z1
G0 Z179
G0 Z1
G0 Z179
G0 Z1
G4 P6000 ; pause for 6 seconds
G0 F6000 Z179
G0 Z1
G0 Z179
G0 Z1
G0 Z179
G0 Z1
G0 Z179
G0 Z1
G0 Z179
G0 Z1
G4 P6000 ; pause for 6 seconds
G0 F3000 X52 Z127
G0 X179 Z1
G0 X52 Z127
G0 X179 Z1
G0 X52 Z127
G0 X179 Z1
G0 X52 Z127
G0 X179 Z1
G0 X52 Z127
G0 X179 Z1
G4 P6000 ; pause for 6 seconds
G0 F6000 X52 Z127
G0 X179 Z1
G0 X52 Z127
G0 X179 Z1
G0 X52 Z127
G0 X179 Z1
G0 X52 Z127
G0 X179 Z1
G0 X52 Z127
G0 X179 Z1
G4 P6000 ; pause for 6 seconds
; xxxxx - Start of end code

;===== date: 20231229 =====================
;turn off nozzle clog detect
G392 S0

M400 ; wait for buffer to clear
; G92 E0 ; zero the extruder
; G1 E-0.8 F1800 ; retract
G1 Z{max_layer_z + 0.5} F900 ; lower z a little
G1 X0 Y{first_layer_center_no_wipe_tower[1]} F18000 ; move to safe pos
G1 X-13.0 F3000 ; move to safe pos
{if !spiral_mode && print_sequence != "by object"}
M1002 judge_flag timelapse_record_flag
M622 J1
M400 P100
M971 S11 C11 O0
M400 P100
M971 S11 C11 O0
M400 P100
M971 S11 C11 O0
M400 P100
M971 S11 C11 O0
M400 P100
M971 S11 C11 O0
M400 P100
M971 S11 C11 O0
M400 P100
M971 S11 C11 O0
M400 P100
M971 S11 C11 O0
M400 P100
M971 S11 C11 O0
M400 P100
M971 S11 C11 O0
M400 P100
M971 S11 C11 O0
M400 P100
M971 S11 C11 O0
M400 P100
M971 S11 C11 O0
M400 P100
M971 S11 C11 O0
M400 P100
M971 S11 C11 O0
M400 P100
M971 S11 C11 O0
M400 P100
M971 S11 C11 O0
M400 P100
M971 S11 C11 O0
M400 P100
M971 S11 C11 O0
M400 P100
M971 S11 C11 O0
M400 P100
M971 S11 C11 O0
M400 P100
M971 S11 C11 O0
M400 P100
M971 S11 C11 O0
M400 P100
M971 S11 C11 O0
M400 P100
M971 S11 C11 O0
M400 P100
M971 S11 C11 O0
M400 P100
M971 S11 C11 O0
M400 P100
M971 S11 C11 O0
M400 P100
M971 S11 C11 O0
M400 P100
M971 S11 C11 O0
M991 S0 P-1 ;end timelapse at safe pos
M623
{endif}

M140 S0 ; turn off bed
M106 S0 ; turn off fan
M106 P2 S0 ; turn off remote part cooling fan
M106 P3 S0 ; turn off chamber cooling fan

;G1 X27 F15000 ; wipe

; pull back filament to AMS
M620 S255
G1 X181 F12000
T255
G1 X0 F18000
G1 X-13.0 F3000
G1 X0 F18000 ; wipe
M621 S255

M104 S0 ; turn off hotend

M400 ; wait all motion done
M17 S
M17 Z0.4 ; lower z motor current to reduce impact if there is something in the bottom
{if (max_layer_z + 100.0) < 180}
    G1 Z{max_layer_z + 100.0} F600
    G1 Z{max_layer_z +98.0}
{else}
    G1 Z180 F600
    G1 Z180
{endif}
M400 P100
M17 R ; restore z current

G90
G1 X-13 Y180 F3600

G91
G1 Z-1 F600
G90
M83

M220 S100  ; Reset feedrate magnitude
M201.2 K1.0 ; Reset acc magnitude
M73.2   R1.0 ;Reset left time magnitude
M1002 set_gcode_claim_speed_level : 0

;=====printer finish  sound=========
M17
M400 S1
M1006 S1
M1006 A0 B20 L100 C37 D20 M100 E42 F20 N100
M1006 A0 B10 L100 C44 D10 M100 E44 F10 N100
M1006 A0 B10 L100 C46 D10 M100 E46 F10 N100
M1006 A44 B20 L100 C39 D20 M100 E48 F20 N100
M1006 A0 B10 L100 C44 D10 M100 E44 F10 N100
M1006 A0 B10 L100 C0 D10 M100 E0 F10 N100
M1006 A0 B10 L100 C39 D10 M100 E39 F10 N100
M1006 A0 B10 L100 C0 D10 M100 E0 F10 N100
M1006 A0 B10 L100 C44 D10 M100 E44 F10 N100
M1006 A0 B10 L100 C0 D10 M100 E0 F10 N100
M1006 A0 B10 L100 C39 D10 M100 E39 F10 N100
M1006 A0 B10 L100 C0 D10 M100 E0 F10 N100
M1006 A44 B10 L100 C0 D10 M100 E48 F10 N100
M1006 A0 B10 L100 C0 D10 M100 E0 F10 N100
M1006 A44 B20 L100 C41 D20 M100 E49 F20 N100
M1006 A0 B20 L100 C0 D20 M100 E0 F20 N100
M1006 A0 B20 L100 C37 D20 M100 E37 F20 N100
M1006 W
;=====printer finish  sound=========
M400 S1
M18 X Y Z
