; HEADER_BLOCK_START
; BambuStudio 02.04.00.70
; model printing time: 19s; total estimated time: 8m 28s
; total layer number: 3
; total filament length [mm] : 110.22
; total filament volume [cm^3] : 265.11
; total filament weight [g] : 0.35
; filament_density: 1.32
; filament_diameter: 1.75
; max_z_height: 0.68
; filament: 1
; HEADER_BLOCK_END

; CONFIG_BLOCK_START
default_acceleration = 10000
default_jerk = 0
machine_max_acceleration_extruding = 10000,10000
machine_max_acceleration_retracting = 10000,10000
machine_max_acceleration_travel = 10000,10000
machine_max_acceleration_x = 10000,10000
machine_max_acceleration_y = 10000,10000
machine_max_acceleration_z = 500,500
machine_max_jerk_x = 0
machine_max_jerk_y = 0
machine_max_jerk_z = 0
machine_max_speed_x = 500,500
machine_max_speed_y = 500,500
machine_max_speed_z = 20,20
travel_acceleration = 10000
travel_jerk = 0
travel_speed = 500
travel_speed_z = 20
; CONFIG_BLOCK_END

; EXECUTABLE_BLOCK_START
M73 P0 R8
M201 X10000 Y10000 Z500 E5000
M203 X500 Y500 Z20 E30
M204 P10000 R5000 T10000
M205 X0 Y0 Z0 E0
M106 S0
M106 P2 S0
M104 S1 ; set nozzle temperature

; FEATURE: Custom

;===== machine: X1-0.4 ====================
;===== date: 20251031 ==================
;===== start printer sound ================
M17 ; Enable stepper motors
M400 S1 ; Wait for moves to finish


;===== reset machine status =================
M290 X40 Y40 Z2.6666666 ; Set baby stepping / offset
G91 ; Set relative positioning
M17 Z0.4 ; lower the z-motor current
G380 S2 Z30 F300 ; G380 is same as G38; lower the hotbed , to prevent the nozzle is below the hotbed
G380 S2 Z-25 F300 ; Probe bed downwards
G1 Z5 F300 ; Move Z up 5mm
G90 ; Set absolute positioning
M17 X1.2 Y1.2 Z0.75 ; reset motor current to default
G90 ; Set absolute positioning
M220 S100 ;Reset Feedrate
M221 S100 ;Reset Flowrate
M73.2   R1.0 ;Reset left time magnitude
M1002 set_gcode_claim_speed_level : 5 ; Set speed claim level
G29.1 Z{+0.0} ; clear z-trim value first
M204 S10000 ; init ACC set to 10m/s^2
M106 P1 S0 ; Turn off part fan


;========turn off light and wait extrude temperature =============
M1002 gcode_claim_action : 0 ; Claim action 0 (Start print)
M973 S4 ; Turn off scanner
M400 ; Wait all motion done before implement the emprical L parameters
M960 S1 P0 ; Turn off laser
M960 S2 P0 ; Turn off laser
M106 S0 ; Turn off fan
M106 P2 S0 ; Turn off big fan
M106 P3 S0 ; Turn off chamber fan

M975 S0 ; Turn off mech mode supression
G90 ; Set absolute positioning
M83 ; Set extruder relative mode
T1000 ; Select tool 1000
G92 X128 Y128



; Time to print!!!!!
; GCode created with FullControl - tell us what you're printing!
; info@fullcontrol.xyz or tag FullControlXYZ on Twitter/Instagram/LinkedIn/Reddit/TikTok
G0 F6000 X41 Y51 Z1
; Fastest axis bed size: 260, Slowest Axis bed size: 280
Section calibration
G4 P6000 ; pause for 6 seconds
G0 F3000 X219 Y229
G4 P6000 ; pause for 6 seconds
G0 X110.967013 Y58.266008
G4 P6000 ; pause for 6 seconds
G0 X170.70669 Y173.833192
G4 P6000 ; pause for 6 seconds
G0 X41 Y118.715972
G4 P6000 ; pause for 6 seconds
G0 X219 Y172.185127
G4 P6000 ; pause for 6 seconds
G0 X41 Y172.520755
G4 P6000 ; pause for 6 seconds
G0 X219 Y51
G4 P6000 ; pause for 6 seconds
G0 X93.630533 Y172.248673
G4 P6000 ; pause for 6 seconds
G0 X219 Y112.909732
G4 P6000 ; pause for 6 seconds
G0 X41 Y229
G4 P6000 ; pause for 6 seconds
G0 X172.902012 Y51.125735
G4 P6000 ; pause for 6 seconds
G0 X164.599356 Y225.093818
G4 P6000 ; pause for 6 seconds
G0 X113.956498 Y106.285734
G4 P6000 ; pause for 6 seconds
G0 X108.409094 Y227.336122
G4 P6000 ; pause for 6 seconds
G0 X159.389211 Y115.024379
G4 P6000 ; pause for 6 seconds
G0 X41 Y51
Section 1
G4 P6000 ; pause for 6 seconds
G0 F6000 X219
G0 X129.5 Y229
G0 X41 Y51
G4 P6000 ; pause for 6 seconds
G0 X41
G0 X45.368339 Y51.05361
G0 X49.734046 Y51.214409
G0 X54.094492 Y51.482299
G0 X58.447051 Y51.857119
G0 X62.7891 Y52.338643
G0 X67.118024 Y52.926581
G0 X71.431216 Y53.62058
G0 X75.726077 Y54.42022
G0 X80.000021 Y55.325021
G0 X84.250472 Y56.334437
G0 X88.474871 Y57.44786
G0 X92.670673 Y58.66462
G0 X96.83535 Y59.983984
G0 X100.966394 Y61.405156
G0 X105.061317 Y62.927282
G0 X109.117651 Y64.549443
G0 X113.132954 Y66.270663
G0 X117.104807 Y68.089906
G0 X121.030817 Y70.006074
G0 X124.908619 Y72.018015
G0 X128.735878 Y74.124516
G0 X132.510288 Y76.324307
G0 X136.229576 Y78.616065
G0 X139.891501 Y80.998409
G0 X143.493858 Y83.469903
G0 X147.034476 Y86.029059
G0 X150.511223 Y88.674336
G0 X153.922005 Y91.404139
G0 X157.264766 Y94.216825
G0 X160.537494 Y97.1107
G0 X163.738217 Y100.084019
G0 X166.865007 Y103.134993
G0 X169.915981 Y106.261783
G0 X172.8893 Y109.462506
G0 X175.783175 Y112.735234
G0 X178.595861 Y116.077995
G0 X181.325664 Y119.488777
G0 X183.970941 Y122.965524
G0 X186.530097 Y126.506142
G0 X189.001591 Y130.108499
G0 X191.383935 Y133.770424
G0 X193.675693 Y137.489712
G0 X195.875484 Y141.264122
G0 X197.981985 Y145.091381
G0 X199.993926 Y148.969183
G0 X201.910094 Y152.895193
G0 X203.729337 Y156.867046
G0 X205.450557 Y160.882349
G0 X207.072718 Y164.938683
G0 X208.594844 Y169.033606
G0 X210.016016 Y173.16465
G0 X211.33538 Y177.329327
G0 X212.55214 Y181.525129
G0 X213.665563 Y185.749528
G0 X214.674979 Y189.999979
G0 X215.57978 Y194.273923
G0 X216.37942 Y198.568784
G0 X217.073419 Y202.881976
G0 X217.661357 Y207.2109
G0 X218.142881 Y211.552949
G0 X218.517701 Y215.905508
G0 X218.785591 Y220.265954
G0 X218.94639 Y224.631661
G0 X219 Y229
G0 Y229
G0 X214.631661 Y228.94639
G0 X210.265954 Y228.785591
G0 X205.905508 Y228.517701
G0 X201.552949 Y228.142881
G0 X197.2109 Y227.661357
G0 X192.881976 Y227.073419
G0 X188.568784 Y226.37942
G0 X184.273923 Y225.57978
G0 X179.999979 Y224.674979
G0 X175.749528 Y223.665563
G0 X171.525129 Y222.55214
G0 X167.329327 Y221.33538
G0 X163.16465 Y220.016016
G0 X159.033606 Y218.594844
G0 X154.938683 Y217.072718
G0 X150.882349 Y215.450557
G0 X146.867046 Y213.729337
G0 X142.895193 Y211.910094
G0 X138.969183 Y209.993926
G0 X135.091381 Y207.981985
G0 X131.264122 Y205.875484
G0 X127.489712 Y203.675693
G0 X123.770424 Y201.383935
G0 X120.108499 Y199.001591
G0 X116.506142 Y196.530097
G0 X112.965524 Y193.970941
G0 X109.488777 Y191.325664
G0 X106.077995 Y188.595861
G0 X102.735234 Y185.783175
G0 X99.462506 Y182.8893
G0 X96.261783 Y179.915981
G0 X93.134993 Y176.865007
G0 X90.084019 Y173.738217
G0 X87.1107 Y170.537494
G0 X84.216825 Y167.264766
G0 X81.404139 Y163.922005
G0 X78.674336 Y160.511223
G0 X76.029059 Y157.034476
G0 X73.469903 Y153.493858
G0 X70.998409 Y149.891501
G0 X68.616065 Y146.229576
G0 X66.324307 Y142.510288
G0 X64.124516 Y138.735878
G0 X62.018015 Y134.908619
G0 X60.006074 Y131.030817
G0 X58.089906 Y127.104807
G0 X56.270663 Y123.132954
G0 X54.549443 Y119.117651
G0 X52.927282 Y115.061317
G0 X51.405156 Y110.966394
G0 X49.983984 Y106.83535
G0 X48.66462 Y102.670673
G0 X47.44786 Y98.474871
G0 X46.334437 Y94.250472
G0 X45.325021 Y90.000021
G0 X44.42022 Y85.726077
G0 X43.62058 Y81.431216
G0 X42.926581 Y77.118024
G0 X42.338643 Y72.7891
G0 X41.857119 Y68.447051
G0 X41.482299 Y64.094492
G0 X41.214409 Y59.734046
G0 X41.05361 Y55.368339
G0 X41 Y51
G4 P6000 ; pause for 6 seconds
G0 F2000 X219 Y140
G4 P6000 ; pause for 6 seconds
G0 F6000 X218.644 Y140.024666 Z1
G0 X218.288 Y140.098566
G0 X217.932 Y140.221409 Z1
G0 X217.576 Y140.39271
G0 X217.22 Y140.611794 Z1
G0 X216.864 Y140.877794 Z1
G0 X216.508 Y141.189662
G0 X216.152 Y141.546166 Z1
G0 X215.796 Y141.945901
G0 X215.44 Y142.387288 Z1
G0 X215.084 Y142.868584
G0 X214.728 Y143.387892 Z1
G0 X214.372 Y143.943161 Z1
G0 X214.016 Y144.5322
G0 X213.66 Y145.152684 Z1
G0 X213.304 Y145.802165
G0 X212.948 Y146.478079 Z1
G0 X212.592 Y147.177759 Z1
G0 X212.236 Y147.898443
G0 X211.88 Y148.637288 Z1
G0 X211.524 Y149.391376
G0 X211.168 Y150.157734 Z1
G0 X210.812 Y150.933335 Z1
G0 X210.456 Y151.715119
G0 X210.1 Y152.5 Z1
G0 X209.744 Y153.284881
G0 X209.388 Y154.066665 Z1
G0 X209.032 Y154.842266
G0 X208.676 Y155.608624 Z1
G0 X208.32 Y156.362712 Z1
G0 X207.964 Y157.101557
G0 X207.608 Y157.822241 Z1
G0 X207.252 Y158.521921
G0 X206.896 Y159.197835 Z1
G0 X206.54 Y159.847316 Z1
G0 X206.184 Y160.4678
G0 X205.828 Y161.056839 Z1
G0 X205.472 Y161.612108
G0 X205.116 Y162.131416 Z1
G0 X204.76 Y162.612712 Z1
G0 X204.404 Y163.054099
G0 X204.048 Y163.453834 Z1
G0 X203.692 Y163.810338
G0 X203.336 Y164.122206 Z1
G0 X202.98 Y164.388206 Z1
G0 X202.624 Y164.60729
G0 X202.268 Y164.778591 Z1
G0 X201.912 Y164.901434
G0 X201.556 Y164.975334 Z1
G0 X201.2 Y165
G0 X200.844 Y164.975334 Z1
G0 X200.488 Y164.901434 Z1
G0 X200.132 Y164.778591
G0 X199.776 Y164.60729 Z1
G0 X199.42 Y164.388206
G0 X199.064 Y164.122206 Z1
G0 X198.708 Y163.810338 Z1
G0 X198.352 Y163.453834
G0 X197.996 Y163.054099 Z1
G0 X197.64 Y162.612712
G0 X197.284 Y162.131416 Z1
G0 X196.928 Y161.612108 Z1
G0 X196.572 Y161.056839
G0 X196.216 Y160.4678 Z1
G0 X195.86 Y159.847316
G0 X195.504 Y159.197835 Z1
G0 X195.148 Y158.521921
G0 X194.792 Y157.822241 Z1
G0 X194.436 Y157.101557 Z1
G0 X194.08 Y156.362712
G0 X193.724 Y155.608624 Z1
G0 X193.368 Y154.842266
G0 X193.012 Y154.066665 Z1
G0 X192.656 Y153.284881 Z1
G0 X192.3 Y152.5
G0 X191.944 Y151.715119 Z1
G0 X191.588 Y150.933335
G0 X191.232 Y150.157734 Z1
G0 X190.876 Y149.391376 Z1
G0 X190.52 Y148.637288
G0 X190.164 Y147.898443 Z1
G0 X189.808 Y147.177759
G0 X189.452 Y146.478079 Z1
G0 X189.096 Y145.802165
G0 X188.74 Y145.152684 Z1
G0 X188.384 Y144.5322 Z1
G0 X188.028 Y143.943161
G0 X187.672 Y143.387892 Z1
G0 X187.316 Y142.868584
G0 X186.96 Y142.387288 Z1
G0 X186.604 Y141.945901 Z1
G0 X186.248 Y141.546166
G0 X185.892 Y141.189662 Z1
G0 X185.536 Y140.877794
G0 X185.18 Y140.611794 Z1
G0 X184.824 Y140.39271 Z1
G0 X184.468 Y140.221409
G0 X184.112 Y140.098566 Z1
G0 X183.756 Y140.024666
G0 X183.4 Y140 Z1
G0 X183.044 Y140.024666
G0 X182.688 Y140.098566 Z1
G0 X182.332 Y140.221409 Z1
G0 X181.976 Y140.39271
G0 X181.62 Y140.611794 Z1
G0 X181.264 Y140.877794
G0 X180.908 Y141.189662 Z1
G0 X180.552 Y141.546166 Z1
G0 X180.196 Y141.945901
G0 X179.84 Y142.387288 Z1
G0 X179.484 Y142.868584
G0 X179.128 Y143.387892 Z1
G0 X178.772 Y143.943161 Z1
G0 X178.416 Y144.5322
G0 X178.06 Y145.152684 Z1
G0 X177.704 Y145.802165
G0 X177.348 Y146.478079 Z1
G0 X176.992 Y147.177759 Z1
G0 X176.636 Y147.898443
G0 X176.28 Y148.637288 Z1
G0 X175.924 Y149.391376
G0 X175.568 Y150.157734 Z1
G0 X175.212 Y150.933335
G0 X174.856 Y151.715119 Z1
G0 X174.5 Y152.5 Z1
G0 X174.144 Y153.284881
G0 X173.788 Y154.066665 Z1
G0 X173.432 Y154.842266
G0 X173.076 Y155.608624 Z1
G0 X172.72 Y156.362712 Z1
G0 X172.364 Y157.101557
G0 X172.008 Y157.822241 Z1
G0 X171.652 Y158.521921
G0 X171.296 Y159.197835 Z1
G0 X170.94 Y159.847316 Z1
G0 X170.584 Y160.4678
G0 X170.228 Y161.056839 Z1
G0 X169.872 Y161.612108
G0 X169.516 Y162.131416 Z1
G0 X169.16 Y162.612712
G0 X168.804 Y163.054099 Z1
G0 X168.448 Y163.453834 Z1
G0 X168.092 Y163.810338
G0 X167.736 Y164.122206 Z1
G0 X167.38 Y164.388206
G0 X167.024 Y164.60729 Z1
G0 X166.668 Y164.778591 Z1
G0 X166.312 Y164.901434
G0 X165.956 Y164.975334 Z1
G0 X165.6 Y165
G0 X165.244 Y164.975334 Z1
G0 X164.888 Y164.901434 Z1
G0 X164.532 Y164.778591
G0 X164.176 Y164.60729 Z1
G0 X163.82 Y164.388206
G0 X163.464 Y164.122206 Z1
G0 X163.108 Y163.810338
G0 X162.752 Y163.453834 Z1
G0 X162.396 Y163.054099 Z1
G0 X162.04 Y162.612712
G0 X161.684 Y162.131416 Z1
G0 X161.328 Y161.612108
G0 X160.972 Y161.056839 Z1
G0 X160.616 Y160.4678 Z1
G0 X160.26 Y159.847316
G0 X159.904 Y159.197835 Z1
G0 X159.548 Y158.521921
G0 X159.192 Y157.822241 Z1
G0 X158.836 Y157.101557 Z1
G0 X158.48 Y156.362712
G0 X158.124 Y155.608624 Z1
G0 X157.768 Y154.842266
G0 X157.412 Y154.066665 Z1
G0 X157.056 Y153.284881
G0 X156.7 Y152.5 Z1
G0 X156.344 Y151.715119 Z1
G0 X155.988 Y150.933335
G0 X155.632 Y150.157734 Z1
G0 X155.276 Y149.391376
G0 X154.92 Y148.637288 Z1
G0 X154.564 Y147.898443 Z1
G0 X154.208 Y147.177759
G0 X153.852 Y146.478079 Z1
G0 X153.496 Y145.802165
G0 X153.14 Y145.152684 Z1
G0 X152.784 Y144.5322 Z1
G0 X152.428 Y143.943161
G0 X152.072 Y143.387892 Z1
G0 X151.716 Y142.868584
G0 X151.36 Y142.387288 Z1
G0 X151.004 Y141.945901 Z1
G0 X150.648 Y141.546166
G0 X150.292 Y141.189662 Z1
G0 X149.936 Y140.877794
G0 X149.58 Y140.611794 Z1
G0 X149.224 Y140.39271
G0 X148.868 Y140.221409 Z1
G0 X148.512 Y140.098566 Z1
G0 X148.156 Y140.024666
G0 X147.8 Y140 Z1
G0 X147.444 Y140.024666
G0 X147.088 Y140.098566 Z1
G0 X146.732 Y140.221409 Z1
G0 X146.376 Y140.39271
G0 X146.02 Y140.611794 Z1
G0 X145.664 Y140.877794
G0 X145.308 Y141.189662 Z1
G0 X144.952 Y141.546166 Z1
G0 X144.596 Y141.945901
G0 X144.24 Y142.387288 Z1
G0 X143.884 Y142.868584
G0 X143.528 Y143.387892 Z1
G0 X143.172 Y143.943161
G0 X142.816 Y144.5322 Z1
G0 X142.46 Y145.152684 Z1
G0 X142.104 Y145.802165
G0 X141.748 Y146.478079 Z1
G0 X141.392 Y147.177759
G0 X141.036 Y147.898443 Z1
G0 X140.68 Y148.637288 Z1
G0 X140.324 Y149.391376
G0 X139.968 Y150.157734 Z1
G0 X139.612 Y150.933335
G0 X139.256 Y151.715119 Z1
G0 X138.9 Y152.5 Z1
G0 X138.544 Y153.284881
G0 X138.188 Y154.066665 Z1
G0 X137.832 Y154.842266
G0 X137.476 Y155.608624 Z1
G0 X137.12 Y156.362712
G0 X136.764 Y157.101557 Z1
G0 X136.408 Y157.822241 Z1
G0 X136.052 Y158.521921
G0 X135.696 Y159.197835 Z1
G0 X135.34 Y159.847316
G0 X134.984 Y160.4678 Z1
G0 X134.628 Y161.056839 Z1
G0 X134.272 Y161.612108
G0 X133.916 Y162.131416 Z1
G0 X133.56 Y162.612712
G0 X133.204 Y163.054099 Z1
G0 X132.848 Y163.453834 Z1
G0 X132.492 Y163.810338
G0 X132.136 Y164.122206 Z1
G0 X131.78 Y164.388206
G0 X131.424 Y164.60729 Z1
G0 X131.068 Y164.778591
G0 X130.712 Y164.901434 Z1
G0 X130.356 Y164.975334 Z1
G0 X130 Y165
G0 X129.644 Y164.975334 Z1
G0 X129.288 Y164.901434
G0 X128.932 Y164.778591 Z1
G0 X128.576 Y164.60729 Z1
G0 X128.22 Y164.388206
G0 X127.864 Y164.122206 Z1
G0 X127.508 Y163.810338
G0 X127.152 Y163.453834 Z1
G0 X126.796 Y163.054099 Z1
G0 X126.44 Y162.612712
G0 X126.084 Y162.131416 Z1
G0 X125.728 Y161.612108
G0 X125.372 Y161.056839 Z1
G0 X125.016 Y160.4678 Z1
G0 X124.66 Y159.847316
G0 X124.304 Y159.197835 Z1
G0 X123.948 Y158.521921
G0 X123.592 Y157.822241 Z1
G0 X123.236 Y157.101557
G0 X122.88 Y156.362712 Z1
G0 X122.524 Y155.608624 Z1
G0 X122.168 Y154.842266
G0 X121.812 Y154.066665 Z1
G0 X121.456 Y153.284881
G0 X121.1 Y152.5 Z1
G0 X120.744 Y151.715119 Z1
G0 X120.388 Y150.933335
G0 X120.032 Y150.157734 Z1
G0 X119.676 Y149.391376
G0 X119.32 Y148.637288 Z1
G0 X118.964 Y147.898443 Z1
G0 X118.608 Y147.177759
G0 X118.252 Y146.478079 Z1
G0 X117.896 Y145.802165
G0 X117.54 Y145.152684 Z1
G0 X117.184 Y144.5322
G0 X116.828 Y143.943161 Z1
G0 X116.472 Y143.387892 Z1
G0 X116.116 Y142.868584
G0 X115.76 Y142.387288 Z1
G0 X115.404 Y141.945901
G0 X115.048 Y141.546166 Z1
G0 X114.692 Y141.189662 Z1
G0 X114.336 Y140.877794
G0 X113.98 Y140.611794 Z1
G0 X113.624 Y140.39271
G0 X113.268 Y140.221409 Z1
G0 X112.912 Y140.098566 Z1
G0 X112.556 Y140.024666
G0 X112.2 Y140 Z1
G0 X111.844 Y140.024666
G0 X111.488 Y140.098566 Z1
G0 X111.132 Y140.221409
G0 X110.776 Y140.39271 Z1
G0 X110.42 Y140.611794 Z1
G0 X110.064 Y140.877794
G0 X109.708 Y141.189662 Z1
G0 X109.352 Y141.546166
G0 X108.996 Y141.945901 Z1
G0 X108.64 Y142.387288 Z1
G0 X108.284 Y142.868584
G0 X107.928 Y143.387892 Z1
G0 X107.572 Y143.943161
G0 X107.216 Y144.5322 Z1
G0 X106.86 Y145.152684 Z1
G0 X106.504 Y145.802165
G0 X106.148 Y146.478079 Z1
G0 X105.792 Y147.177759
G0 X105.436 Y147.898443 Z1
G0 X105.08 Y148.637288
G0 X104.724 Y149.391376 Z1
G0 X104.368 Y150.157734 Z1
G0 X104.012 Y150.933335
G0 X103.656 Y151.715119 Z1
G0 X103.3 Y152.5
G0 X102.944 Y153.284881 Z1
G0 X102.588 Y154.066665 Z1
G0 X102.232 Y154.842266
G0 X101.876 Y155.608624 Z1
G0 X101.52 Y156.362712
G0 X101.164 Y157.101557 Z1
G0 X100.808 Y157.822241 Z1
G0 X100.452 Y158.521921
G0 X100.096 Y159.197835 Z1
G0 X99.74 Y159.847316
G0 X99.384 Y160.4678 Z1
G0 X99.028 Y161.056839 Z1
G0 X98.672 Y161.612108
G0 X98.316 Y162.131416 Z1
G0 X97.96 Y162.612712
G0 X97.604 Y163.054099 Z1
G0 X97.248 Y163.453834
G0 X96.892 Y163.810338 Z1
G0 X96.536 Y164.122206 Z1
G0 X96.18 Y164.388206
G0 X95.824 Y164.60729 Z1
G0 X95.468 Y164.778591
G0 X95.112 Y164.901434 Z1
G0 X94.756 Y164.975334 Z1
G0 X94.4 Y165
G0 X94.044 Y164.975334 Z1
G0 X93.688 Y164.901434
G0 X93.332 Y164.778591 Z1
G0 X92.976 Y164.60729 Z1
G0 X92.62 Y164.388206
G0 X92.264 Y164.122206 Z1
G0 X91.908 Y163.810338
G0 X91.552 Y163.453834 Z1
G0 X91.196 Y163.054099
G0 X90.84 Y162.612712 Z1
G0 X90.484 Y162.131416 Z1
G0 X90.128 Y161.612108
G0 X89.772 Y161.056839 Z1
G0 X89.416 Y160.4678
G0 X89.06 Y159.847316 Z1
G0 X88.704 Y159.197835 Z1
G0 X88.348 Y158.521921
G0 X87.992 Y157.822241 Z1
G0 X87.636 Y157.101557
G0 X87.28 Y156.362712 Z1
G0 X86.924 Y155.608624 Z1
G0 X86.568 Y154.842266
G0 X86.212 Y154.066665 Z1
G0 X85.856 Y153.284881
G0 X85.5 Y152.5 Z1
G0 X85.144 Y151.715119
G0 X84.788 Y150.933335 Z1
G0 X84.432 Y150.157734 Z1
G0 X84.076 Y149.391376
G0 X83.72 Y148.637288 Z1
G0 X83.364 Y147.898443
G0 X83.008 Y147.177759 Z1
G0 X82.652 Y146.478079 Z1
G0 X82.296 Y145.802165
G0 X81.94 Y145.152684 Z1
G0 X81.584 Y144.5322
G0 X81.228 Y143.943161 Z1
G0 X80.872 Y143.387892 Z1
G0 X80.516 Y142.868584
G0 X80.16 Y142.387288 Z1
G0 X79.804 Y141.945901
G0 X79.448 Y141.546166 Z1
G0 X79.092 Y141.189662
G0 X78.736 Y140.877794 Z1
G0 X78.38 Y140.611794 Z1
G0 X78.024 Y140.39271
G0 X77.668 Y140.221409 Z1
G0 X77.312 Y140.098566
G0 X76.956 Y140.024666 Z1
G0 X76.6 Y140 Z1
G0 X76.244 Y140.024666
G0 X75.888 Y140.098566 Z1
G0 X75.532 Y140.221409
G0 X75.176 Y140.39271 Z1
G0 X74.82 Y140.611794 Z1
G0 X74.464 Y140.877794
G0 X74.108 Y141.189662 Z1
G0 X73.752 Y141.546166
G0 X73.396 Y141.945901 Z1
G0 X73.04 Y142.387288 Z1
G0 X72.684 Y142.868584
G0 X72.328 Y143.387892 Z1
G0 X71.972 Y143.943161
G0 X71.616 Y144.5322 Z1
G0 X71.26 Y145.152684
G0 X70.904 Y145.802165 Z1
G0 X70.548 Y146.478079 Z1
G0 X70.192 Y147.177759
G0 X69.836 Y147.898443 Z1
G0 X69.48 Y148.637288
G0 X69.124 Y149.391376 Z1
G0 X68.768 Y150.157734 Z1
G0 X68.412 Y150.933335
G0 X68.056 Y151.715119 Z1
G0 X67.7 Y152.5
G0 X67.344 Y153.284881 Z1
G0 X66.988 Y154.066665 Z1
G0 X66.632 Y154.842266
G0 X66.276 Y155.608624 Z1
G0 X65.92 Y156.362712
G0 X65.564 Y157.101557 Z1
G0 X65.208 Y157.822241
G0 X64.852 Y158.521921 Z1
G0 X64.496 Y159.197835 Z1
G0 X64.14 Y159.847316
G0 X63.784 Y160.4678 Z1
G0 X63.428 Y161.056839
G0 X63.072 Y161.612108 Z1
G0 X62.716 Y162.131416 Z1
G0 X62.36 Y162.612712
G0 X62.004 Y163.054099 Z1
G0 X61.648 Y163.453834
G0 X61.292 Y163.810338 Z1
G0 X60.936 Y164.122206 Z1
G0 X60.58 Y164.388206
G0 X60.224 Y164.60729 Z1
G0 X59.868 Y164.778591
G0 X59.512 Y164.901434 Z1
G0 X59.156 Y164.975334
G0 X58.8 Y165 Z1
G0 X58.444 Y164.975334 Z1
G0 X58.088 Y164.901434
G0 X57.732 Y164.778591 Z1
G0 X57.376 Y164.60729
G0 X57.02 Y164.388206 Z1
G0 X56.664 Y164.122206 Z1
G0 X56.308 Y163.810338
G0 X55.952 Y163.453834 Z1
G0 X55.596 Y163.054099
G0 X55.24 Y162.612712 Z1
G0 X54.884 Y162.131416 Z1
G0 X54.528 Y161.612108
G0 X54.172 Y161.056839 Z1
G0 X53.816 Y160.4678
G0 X53.46 Y159.847316 Z1
G0 X53.104 Y159.197835
G0 X52.748 Y158.521921 Z1
G0 X52.392 Y157.822241 Z1
G0 X52.036 Y157.101557
G0 X51.68 Y156.362712 Z1
G0 X51.324 Y155.608624
G0 X50.968 Y154.842266 Z1
G0 X50.612 Y154.066665 Z1
G0 X50.256 Y153.284881
G0 X49.9 Y152.5 Z1
G0 X49.544 Y151.715119
G0 X49.188 Y150.933335 Z1
G0 X48.832 Y150.157734 Z1
G0 X48.476 Y149.391376
G0 X48.12 Y148.637288 Z1
G0 X47.764 Y147.898443
G0 X47.408 Y147.177759 Z1
G0 X47.052 Y146.478079 Z1
G0 X46.696 Y145.802165
G0 X46.34 Y145.152684 Z1
G0 X45.984 Y144.5322
G0 X45.628 Y143.943161 Z1
G0 X45.272 Y143.387892
G0 X44.916 Y142.868584 Z1
G0 X44.56 Y142.387288 Z1
G0 X44.204 Y141.945901
G0 X43.848 Y141.546166 Z1
G0 X43.492 Y141.189662
G0 X43.136 Y140.877794 Z1
G0 X42.78 Y140.611794 Z1
G0 X42.424 Y140.39271
G0 X42.068 Y140.221409 Z1
G0 X41.712 Y140.098566
G0 X41.356 Y140.024666 Z1
G0 X41 Y140 Z1
G0 Z1
G0 X41.356 Y140.024666 Z1
G0 X41.712 Y140.098566 Z1
G0 X42.068 Y140.221409
G0 X42.424 Y140.39271 Z1
G0 X42.78 Y140.611794 Z1
G0 X43.136 Y140.877794 Z1
G0 X43.492 Y141.189662
G0 X43.848 Y141.546166 Z1
G0 X44.204 Y141.945901 Z1
G0 X44.56 Y142.387288 Z1
G0 X44.916 Y142.868584 Z1
G0 X45.272 Y143.387892
G0 X45.628 Y143.943161 Z1
G0 X45.984 Y144.5322 Z1
G0 X46.34 Y145.152684 Z1
G0 X46.696 Y145.802165 Z1
G0 X47.052 Y146.478079
G0 X47.408 Y147.177759 Z1
G0 X47.764 Y147.898443 Z1
G0 X48.12 Y148.637288 Z1
G0 X48.476 Y149.391376
G0 X48.832 Y150.157734 Z1
G0 X49.188 Y150.933335 Z1
G0 X49.544 Y151.715119 Z1
G0 X49.9 Y152.5 Z1
G0 X50.256 Y153.284881
G0 X50.612 Y154.066665 Z1
G0 X50.968 Y154.842266 Z1
G0 X51.324 Y155.608624 Z1
G0 X51.68 Y156.362712 Z1
G0 X52.036 Y157.101557
G0 X52.392 Y157.822241 Z1
G0 X52.748 Y158.521921 Z1
G0 X53.104 Y159.197835 Z1
G0 X53.46 Y159.847316
G0 X53.816 Y160.4678 Z1
G0 X54.172 Y161.056839 Z1
G0 X54.528 Y161.612108 Z1
G0 X54.884 Y162.131416 Z1
G0 X55.24 Y162.612712
G0 X55.596 Y163.054099 Z1
G0 X55.952 Y163.453834 Z1
G0 X56.308 Y163.810338 Z1
G0 X56.664 Y164.122206 Z1
G0 X57.02 Y164.388206
G0 X57.376 Y164.60729 Z1
G0 X57.732 Y164.778591 Z1
G0 X58.088 Y164.901434 Z1
G0 X58.444 Y164.975334
G0 X58.8 Y165 Z1
G0 X59.156 Y164.975334 Z1
G0 X59.512 Y164.901434 Z1
G0 X59.868 Y164.778591 Z1
G0 X60.224 Y164.60729
G0 X60.58 Y164.388206 Z1
G0 X60.936 Y164.122206 Z1
G0 X61.292 Y163.810338 Z1
G0 X61.648 Y163.453834 Z1
G0 X62.004 Y163.054099
G0 X62.36 Y162.612712 Z1
G0 X62.716 Y162.131416 Z1
G0 X63.072 Y161.612108 Z1
G0 X63.428 Y161.056839
G0 X63.784 Y160.4678 Z1
G0 X64.14 Y159.847316 Z1
G0 X64.496 Y159.197835 Z1
G0 X64.852 Y158.521921 Z1
G0 X65.208 Y157.822241
G0 X65.564 Y157.101557 Z1
G0 X65.92 Y156.362712 Z1
G0 X66.276 Y155.608624 Z1
G0 X66.632 Y154.842266 Z1
G0 X66.988 Y154.066665
G0 X67.344 Y153.284881 Z1
G0 X67.7 Y152.5 Z1
G0 X68.056 Y151.715119 Z1
G0 X68.412 Y150.933335
G0 X68.768 Y150.157734 Z1
G0 X69.124 Y149.391376 Z1
G0 X69.48 Y148.637288 Z1
G0 X69.836 Y147.898443 Z1
G0 X70.192 Y147.177759
G0 X70.548 Y146.478079 Z1
G0 X70.904 Y145.802165 Z1
G0 X71.26 Y145.152684 Z1
G0 X71.616 Y144.5322 Z1
G0 X71.972 Y143.943161
G0 X72.328 Y143.387892 Z1
G0 X72.684 Y142.868584 Z1
G0 X73.04 Y142.387288 Z1
G0 X73.396 Y141.945901
G0 X73.752 Y141.546166 Z1
G0 X74.108 Y141.189662 Z1
G0 X74.464 Y140.877794 Z1
G0 X74.82 Y140.611794 Z1
G0 X75.176 Y140.39271
G0 X75.532 Y140.221409 Z1
G0 X75.888 Y140.098566 Z1
G0 X76.244 Y140.024666 Z1
G0 X76.6 Y140 Z1
G0 X76.956 Y140.024666
G0 X77.312 Y140.098566 Z1
G0 X77.668 Y140.221409 Z1
G0 X78.024 Y140.39271 Z1
G0 X78.38 Y140.611794
G0 X78.736 Y140.877794 Z1
G0 X79.092 Y141.189662 Z1
G0 X79.448 Y141.546166 Z1
G0 X79.804 Y141.945901 Z1
G0 X80.16 Y142.387288
G0 X80.516 Y142.868584 Z1
G0 X80.872 Y143.387892 Z1
G0 X81.228 Y143.943161 Z1
G0 X81.584 Y144.5322 Z1
G0 X81.94 Y145.152684
G0 X82.296 Y145.802165 Z1
G0 X82.652 Y146.478079 Z1
G0 X83.008 Y147.177759 Z1
G0 X83.364 Y147.898443
G0 X83.72 Y148.637288 Z1
G0 X84.076 Y149.391376 Z1
G0 X84.432 Y150.157734 Z1
G0 X84.788 Y150.933335 Z1
G0 X85.144 Y151.715119
G0 X85.5 Y152.5 Z1
G0 X85.856 Y153.284881 Z1
G0 X86.212 Y154.066665 Z1
G0 X86.568 Y154.842266 Z1
G0 X86.924 Y155.608624
G0 X87.28 Y156.362712 Z1
G0 X87.636 Y157.101557 Z1
G0 X87.992 Y157.822241 Z1
G0 X88.348 Y158.521921
G0 X88.704 Y159.197835 Z1
G0 X89.06 Y159.847316 Z1
G0 X89.416 Y160.4678 Z1
G0 X89.772 Y161.056839 Z1
G0 X90.128 Y161.612108
G0 X90.484 Y162.131416 Z1
G0 X90.84 Y162.612712 Z1
G0 X91.196 Y163.054099 Z1
G0 X91.552 Y163.453834 Z1
G0 X91.908 Y163.810338
G0 X92.264 Y164.122206 Z1
G0 X92.62 Y164.388206 Z1
G0 X92.976 Y164.60729 Z1
G0 X93.332 Y164.778591
G0 X93.688 Y164.901434 Z1
G0 X94.044 Y164.975334 Z1
G0 X94.4 Y165 Z1
G0 X94.756 Y164.975334 Z1
G0 X95.112 Y164.901434
G0 X95.468 Y164.778591 Z1
G0 X95.824 Y164.60729 Z1
G0 X96.18 Y164.388206 Z1
G0 X96.536 Y164.122206 Z1
G0 X96.892 Y163.810338
G0 X97.248 Y163.453834 Z1
G0 X97.604 Y163.054099 Z1
G0 X97.96 Y162.612712 Z1
G0 X98.316 Y162.131416
G0 X98.672 Y161.612108 Z1
G0 X99.028 Y161.056839 Z1
G0 X99.384 Y160.4678 Z1
G0 X99.74 Y159.847316 Z1
G0 X100.096 Y159.197835
G0 X100.452 Y158.521921 Z1
G0 X100.808 Y157.822241 Z1
G0 X101.164 Y157.101557 Z1
G0 X101.52 Y156.362712 Z1
G0 X101.876 Y155.608624
G0 X102.232 Y154.842266 Z1
G0 X102.588 Y154.066665 Z1
G0 X102.944 Y153.284881 Z1
G0 X103.3 Y152.5
G0 X103.656 Y151.715119 Z1
G0 X104.012 Y150.933335 Z1
G0 X104.368 Y150.157734 Z1
G0 X104.724 Y149.391376 Z1
G0 X105.08 Y148.637288
G0 X105.436 Y147.898443 Z1
G0 X105.792 Y147.177759 Z1
G0 X106.148 Y146.478079 Z1
G0 X106.504 Y145.802165 Z1
G0 X106.86 Y145.152684
G0 X107.216 Y144.5322 Z1
G0 X107.572 Y143.943161 Z1
G0 X107.928 Y143.387892 Z1
G0 X108.284 Y142.868584
G0 X108.64 Y142.387288 Z1
G0 X108.996 Y141.945901 Z1
G0 X109.352 Y141.546166 Z1
G0 X109.708 Y141.189662 Z1
G0 X110.064 Y140.877794
G0 X110.42 Y140.611794 Z1
G0 X110.776 Y140.39271 Z1
G0 X111.132 Y140.221409 Z1
G0 X111.488 Y140.098566 Z1
G0 X111.844 Y140.024666
G0 X112.2 Y140 Z1
G0 X112.556 Y140.024666 Z1
G0 X112.912 Y140.098566 Z1
G0 X113.268 Y140.221409
G0 X113.624 Y140.39271 Z1
G0 X113.98 Y140.611794 Z1
G0 X114.336 Y140.877794 Z1
G0 X114.692 Y141.189662 Z1
G0 X115.048 Y141.546166
G0 X115.404 Y141.945901 Z1
G0 X115.76 Y142.387288 Z1
G0 X116.116 Y142.868584 Z1
G0 X116.472 Y143.387892 Z1
G0 X116.828 Y143.943161
G0 X117.184 Y144.5322 Z1
G0 X117.54 Y145.152684 Z1
G0 X117.896 Y145.802165 Z1
G0 X118.252 Y146.478079
G0 X118.608 Y147.177759 Z1
G0 X118.964 Y147.898443 Z1
G0 X119.32 Y148.637288 Z1
G0 X119.676 Y149.391376 Z1
G0 X120.032 Y150.157734
G0 X120.388 Y150.933335 Z1
G0 X120.744 Y151.715119 Z1
G0 X121.1 Y152.5 Z1
G0 X121.456 Y153.284881
G0 X121.812 Y154.066665 Z1
G0 X122.168 Y154.842266 Z1
G0 X122.524 Y155.608624 Z1
G0 X122.88 Y156.362712 Z1
G0 X123.236 Y157.101557
G0 X123.592 Y157.822241 Z1
G0 X123.948 Y158.521921 Z1
G0 X124.304 Y159.197835 Z1
G0 X124.66 Y159.847316 Z1
G0 X125.016 Y160.4678
G0 X125.372 Y161.056839 Z1
G0 X125.728 Y161.612108 Z1
G0 X126.084 Y162.131416 Z1
G0 X126.44 Y162.612712
G0 X126.796 Y163.054099 Z1
G0 X127.152 Y163.453834 Z1
G0 X127.508 Y163.810338 Z1
G0 X127.864 Y164.122206 Z1
G0 X128.22 Y164.388206
G0 X128.576 Y164.60729 Z1
G0 X128.932 Y164.778591 Z1
G0 X129.288 Y164.901434 Z1
G0 X129.644 Y164.975334 Z1
G0 X130 Y165
G0 X130.356 Y164.975334 Z1
G0 X130.712 Y164.901434 Z1
G0 X131.068 Y164.778591 Z1
G0 X131.424 Y164.60729
G0 X131.78 Y164.388206 Z1
G0 X132.136 Y164.122206 Z1
G0 X132.492 Y163.810338 Z1
G0 X132.848 Y163.453834 Z1
G0 X133.204 Y163.054099
G0 X133.56 Y162.612712 Z1
G0 X133.916 Y162.131416 Z1
G0 X134.272 Y161.612108 Z1
G0 X134.628 Y161.056839 Z1
G0 X134.984 Y160.4678
G0 X135.34 Y159.847316 Z1
G0 X135.696 Y159.197835 Z1
G0 X136.052 Y158.521921 Z1
G0 X136.408 Y157.822241
G0 X136.764 Y157.101557 Z1
G0 X137.12 Y156.362712 Z1
G0 X137.476 Y155.608624 Z1
G0 X137.832 Y154.842266 Z1
G0 X138.188 Y154.066665
G0 X138.544 Y153.284881 Z1
G0 X138.9 Y152.5 Z1
G0 X139.256 Y151.715119 Z1
G0 X139.612 Y150.933335 Z1
G0 X139.968 Y150.157734
G0 X140.324 Y149.391376 Z1
G0 X140.68 Y148.637288 Z1
G0 X141.036 Y147.898443 Z1
G0 X141.392 Y147.177759
G0 X141.748 Y146.478079 Z1
G0 X142.104 Y145.802165 Z1
G0 X142.46 Y145.152684 Z1
G0 X142.816 Y144.5322 Z1
G0 X143.172 Y143.943161
G0 X143.528 Y143.387892 Z1
G0 X143.884 Y142.868584 Z1
G0 X144.24 Y142.387288 Z1
G0 X144.596 Y141.945901 Z1
G0 X144.952 Y141.546166
G0 X145.308 Y141.189662 Z1
G0 X145.664 Y140.877794 Z1
G0 X146.02 Y140.611794 Z1
G0 X146.376 Y140.39271
G0 X146.732 Y140.221409 Z1
G0 X147.088 Y140.098566 Z1
G0 X147.444 Y140.024666 Z1
G0 X147.8 Y140 Z1
G0 X148.156 Y140.024666
G0 X148.512 Y140.098566 Z1
G0 X148.868 Y140.221409 Z1
G0 X149.224 Y140.39271 Z1
G0 X149.58 Y140.611794 Z1
G0 X149.936 Y140.877794
G0 X150.292 Y141.189662 Z1
G0 X150.648 Y141.546166 Z1
G0 X151.004 Y141.945901 Z1
G0 X151.36 Y142.387288
G0 X151.716 Y142.868584 Z1
G0 X152.072 Y143.387892 Z1
G0 X152.428 Y143.943161 Z1
G0 X152.784 Y144.5322 Z1
G0 X153.14 Y145.152684
G0 X153.496 Y145.802165 Z1
G0 X153.852 Y146.478079 Z1
G0 X154.208 Y147.177759 Z1
G0 X154.564 Y147.898443 Z1
G0 X154.92 Y148.637288
G0 X155.276 Y149.391376 Z1
G0 X155.632 Y150.157734 Z1
G0 X155.988 Y150.933335 Z1
G0 X156.344 Y151.715119
G0 X156.7 Y152.5 Z1
G0 X157.056 Y153.284881 Z1
G0 X157.412 Y154.066665 Z1
G0 X157.768 Y154.842266 Z1
G0 X158.124 Y155.608624
G0 X158.48 Y156.362712 Z1
G0 X158.836 Y157.101557 Z1
G0 X159.192 Y157.822241 Z1
G0 X159.548 Y158.521921 Z1
G0 X159.904 Y159.197835
G0 X160.26 Y159.847316 Z1
G0 X160.616 Y160.4678 Z1
G0 X160.972 Y161.056839 Z1
G0 X161.328 Y161.612108
G0 X161.684 Y162.131416 Z1
G0 X162.04 Y162.612712 Z1
G0 X162.396 Y163.054099 Z1
G0 X162.752 Y163.453834 Z1
G0 X163.108 Y163.810338
G0 X163.464 Y164.122206 Z1
G0 X163.82 Y164.388206 Z1
G0 X164.176 Y164.60729 Z1
G0 X164.532 Y164.778591 Z1
G0 X164.888 Y164.901434
G0 X165.244 Y164.975334 Z1
G0 X165.6 Y165 Z1
G0 X165.956 Y164.975334 Z1
G0 X166.312 Y164.901434
G0 X166.668 Y164.778591 Z1
G0 X167.024 Y164.60729 Z1
G0 X167.38 Y164.388206 Z1
G0 X167.736 Y164.122206 Z1
G0 X168.092 Y163.810338
G0 X168.448 Y163.453834 Z1
G0 X168.804 Y163.054099 Z1
G0 X169.16 Y162.612712 Z1
G0 X169.516 Y162.131416 Z1
G0 X169.872 Y161.612108
G0 X170.228 Y161.056839 Z1
G0 X170.584 Y160.4678 Z1
G0 X170.94 Y159.847316 Z1
G0 X171.296 Y159.197835
G0 X171.652 Y158.521921 Z1
G0 X172.008 Y157.822241 Z1
G0 X172.364 Y157.101557 Z1
G0 X172.72 Y156.362712 Z1
G0 X173.076 Y155.608624
G0 X173.432 Y154.842266 Z1
G0 X173.788 Y154.066665 Z1
G0 X174.144 Y153.284881 Z1
G0 X174.5 Y152.5 Z1
G0 X174.856 Y151.715119
G0 X175.212 Y150.933335 Z1
G0 X175.568 Y150.157734 Z1
G0 X175.924 Y149.391376 Z1
G0 X176.28 Y148.637288
G0 X176.636 Y147.898443 Z1
G0 X176.992 Y147.177759 Z1
G0 X177.348 Y146.478079 Z1
G0 X177.704 Y145.802165 Z1
G0 X178.06 Y145.152684
G0 X178.416 Y144.5322 Z1
G0 X178.772 Y143.943161 Z1
G0 X179.128 Y143.387892 Z1
G0 X179.484 Y142.868584 Z1
G0 X179.84 Y142.387288
G0 X180.196 Y141.945901 Z1
G0 X180.552 Y141.546166 Z1
G0 X180.908 Y141.189662 Z1
G0 X181.264 Y140.877794
G0 X181.62 Y140.611794 Z1
G0 X181.976 Y140.39271 Z1
G0 X182.332 Y140.221409 Z1
G0 X182.688 Y140.098566 Z1
G0 X183.044 Y140.024666
G0 X183.4 Y140 Z1
G0 X183.756 Y140.024666 Z1
G0 X184.112 Y140.098566 Z1
G0 X184.468 Y140.221409 Z1
G0 X184.824 Y140.39271
G0 X185.18 Y140.611794 Z1
G0 X185.536 Y140.877794 Z1
G0 X185.892 Y141.189662 Z1
G0 X186.248 Y141.546166
G0 X186.604 Y141.945901 Z1
G0 X186.96 Y142.387288 Z1
G0 X187.316 Y142.868584 Z1
G0 X187.672 Y143.387892 Z1
G0 X188.028 Y143.943161
G0 X188.384 Y144.5322 Z1
G0 X188.74 Y145.152684 Z1
G0 X189.096 Y145.802165 Z1
G0 X189.452 Y146.478079 Z1
G0 X189.808 Y147.177759
G0 X190.164 Y147.898443 Z1
G0 X190.52 Y148.637288 Z1
G0 X190.876 Y149.391376 Z1
G0 X191.232 Y150.157734
G0 X191.588 Y150.933335 Z1
G0 X191.944 Y151.715119 Z1
G0 X192.3 Y152.5 Z1
G0 X192.656 Y153.284881 Z1
G0 X193.012 Y154.066665
G0 X193.368 Y154.842266 Z1
G0 X193.724 Y155.608624 Z1
G0 X194.08 Y156.362712 Z1
G0 X194.436 Y157.101557
G0 X194.792 Y157.822241 Z1
G0 X195.148 Y158.521921 Z1
G0 X195.504 Y159.197835 Z1
G0 X195.86 Y159.847316 Z1
G0 X196.216 Y160.4678
G0 X196.572 Y161.056839 Z1
G0 X196.928 Y161.612108 Z1
G0 X197.284 Y162.131416 Z1
G0 X197.64 Y162.612712 Z1
G0 X197.996 Y163.054099
G0 X198.352 Y163.453834 Z1
G0 X198.708 Y163.810338 Z1
G0 X199.064 Y164.122206 Z1
G0 X199.42 Y164.388206
G0 X199.776 Y164.60729 Z1
G0 X200.132 Y164.778591 Z1
G0 X200.488 Y164.901434 Z1
G0 X200.844 Y164.975334 Z1
G0 X201.2 Y165
G0 X201.556 Y164.975334 Z1
G0 X201.912 Y164.901434 Z1
G0 X202.268 Y164.778591 Z1
G0 X202.624 Y164.60729 Z1
G0 X202.98 Y164.388206
G0 X203.336 Y164.122206 Z1
G0 X203.692 Y163.810338 Z1
G0 X204.048 Y163.453834 Z1
G0 X204.404 Y163.054099
G0 X204.76 Y162.612712 Z1
G0 X205.116 Y162.131416 Z1
G0 X205.472 Y161.612108 Z1
G0 X205.828 Y161.056839 Z1
G0 X206.184 Y160.4678
G0 X206.54 Y159.847316 Z1
G0 X206.896 Y159.197835 Z1
G0 X207.252 Y158.521921 Z1
G0 X207.608 Y157.822241 Z1
G0 X207.964 Y157.101557
G0 X208.32 Y156.362712 Z1
G0 X208.676 Y155.608624 Z1
G0 X209.032 Y154.842266 Z1
G0 X209.388 Y154.066665
G0 X209.744 Y153.284881 Z1
G0 X210.1 Y152.5 Z1
G0 X210.456 Y151.715119 Z1
G0 X210.812 Y150.933335 Z1
G0 X211.168 Y150.157734
G0 X211.524 Y149.391376 Z1
G0 X211.88 Y148.637288 Z1
G0 X212.236 Y147.898443 Z1
G0 X212.592 Y147.177759 Z1
G0 X212.948 Y146.478079
G0 X213.304 Y145.802165 Z1
G0 X213.66 Y145.152684 Z1
G0 X214.016 Y144.5322 Z1
G0 X214.372 Y143.943161
G0 X214.728 Y143.387892 Z1
G0 X215.084 Y142.868584 Z1
G0 X215.44 Y142.387288 Z1
G0 X215.796 Y141.945901 Z1
G0 X216.152 Y141.546166
G0 X216.508 Y141.189662 Z1
G0 X216.864 Y140.877794 Z1
G0 X217.22 Y140.611794 Z1
G0 X217.576 Y140.39271 Z1
G0 X217.932 Y140.221409
G0 X218.288 Y140.098566 Z1
G0 X218.644 Y140.024666 Z1
G0 X219 Y140 Z1
Section 4
G4 P6000 ; pause for 6 seconds
G0 F3000 Z1
G0 X41
G0 X219
G0 X41
G0 X219
G0 X41
G0 X219
G0 X41
G0 X219
G0 X41
G0 X219
G4 P6000 ; pause for 6 seconds
G0 F6000 X41
G0 X219
G0 X41
G0 X219
G0 X41
G0 X219
G0 X41
G0 X219
G0 X41
G0 X219
G0 X41
G0 X219
G0 X41
G0 X219
G0 X41
G0 X219
G4 P6000 ; pause for 6 seconds
G0 F9000 X41
G0 X219
G0 X41
G0 X219
G0 X41
G0 X219
G0 X41
G0 X219
G0 X41
G0 X219
G0 X41
G0 X219
G0 X41
G0 X219
G0 X41
G0 X219
G4 P6000 ; pause for 6 seconds
G0 F12000 X41
G0 X219
G0 X41
G0 X219
G0 X41
G0 X219
G0 X41
G0 X219
G0 X41
G0 X219
G0 X41
G0 X219
G0 X41
G0 X219
G0 X41
G0 X219
G4 P6000 ; pause for 6 seconds
G0 F15000 X41
G0 X219
G0 X41
G0 X219
G0 X41
G0 X219
G0 X41
G0 X219
G0 X41
G0 X219
G0 X41
G0 X219
G0 X41
G0 X219
G0 X41
G0 X219
G4 P6000 ; pause for 6 seconds
G0 F18000 X41
G0 X219
G0 X41
G0 X219
G0 X41
G0 X219
G0 X41
G0 X219
G0 X41
G0 X219
G0 X41
G0 X219
G0 X41
G0 X219
G0 X41
G0 X219
G4 P6000 ; pause for 6 seconds
G0 F21000 X41
G0 X219
G0 X41
G0 X219
G0 X41
G0 X219
G0 X41
G0 X219
G0 X41
G0 X219
G0 X41
G0 X219
G0 X41
G0 X219
G0 X41
G0 X219
G4 P6000 ; pause for 6 seconds
G0 F24000 X41
G0 X219
G0 X41
G0 X219
G0 X41
G0 X219
G0 X41
G0 X219
G0 X41
G0 X219
G0 X41
G0 X219
G0 X41
G0 X219
G0 X41
G0 X219
G4 P6000 ; pause for 6 seconds
G0 F27000 X41
G0 X219
G0 X41
G0 X219
G0 X41
G0 X219
G0 X41
G0 X219
G0 X41
G0 X219
G0 X41
G0 X219
G0 X41
G0 X219
G0 X41
G0 X219
G4 P6000 ; pause for 6 seconds
G0 F30000 X41
G0 X219
G0 X41
G0 X219
G0 X41
G0 X219
G0 X41
G0 X219
G0 X41
G0 X219
G0 X41
G0 X219
G0 X41
G0 X219
G0 X41
G0 X219
G4 P6000 ; pause for 6 seconds
Section 5
G0 F6000 X139.56 Y120
G0 X161.61 Y134.17
G0 X152.12 Y130.6
G0 X133.9 Y101.57
G0 X153.03 Y147.88
G0 X143.75 Y113.58
G0 X153.17 Y120.44
G0 X149.56 Y154.29
G0 X167.14 Y148.6
G0 X160.79 Y141.23
G0 X174.2 Y137.51
G0 X176.11 Y132.09
G0 X170.57 Y112.62
G0 X140.47 Y115.11
G0 X155.76 Y152.23
G0 X165.33 Y102.94
G0 X160.74 Y90.77
G0 X149.06 Y92.68
G0 X172.6 Y101.91
G0 X177.48 Y113.56
G0 X168.94 Y123.6
G0 X174.37 Y134.99
G0 X163.27 Y164.86
G0 X175.61 Y149.62
G0 X141.94 Y138.02
G0 X124.97 Y144.66
G0 X105.74 Y135
G0 X82.24 Y119.25
G0 X83.02 Y130.41
G0 X100.07 Y153.71
G0 X86.25 Y149.02
G0 X131.24 Y169.9
G0 X109.68 Y172.05
G0 X113.56 Y184.64
G0 X84.91 Y160.54
G0 X89.53 Y146.55
G0 X82.51 Y153.38
G0 X80.11 Y173.15
G0 X84.55 Y186.25
G0 X85.02 Y188.55
G0 X72.81 Y176.11
G0 X91.11 Y174.14
G0 X124.3 Y177.41
G0 X133.48 Y181.77
G0 X127.36 Y183.22
G0 X155.57 Y171.77
G0 X162.51 Y180.12
G0 X140.08 Y188.09
G0 X135.28 Y185.01
G0 X157.37 Y178.77
G0 X158.76 Y188.92
G0 X139.11 Y181.44
G0 X124.02 Y182.89
G0 X136.01 Y183.66
G0 X137.09 Y175.63
G0 X112.87 Y184.18
G0 X151.5 Y180.49
G0 X159.01 Y179.56
G0 X152.38 Y163.92
G0 X163.05 Y180.76
G0 X134.32 Y169.73
G0 X119.41 Y164.19
G0 X41 Y51
G4 P6000 ; pause for 6 seconds
Section 6
G0 F2000 X219
G4 P6000 ; pause for 6 seconds
G0 F3000 Y229
G0 Y51
G0 Y229
G0 Y51
G0 Y229
G0 Y51
G0 Y229
G0 Y51
G0 Y229
G0 Y51
G4 P6000 ; pause for 6 seconds
G0 F6000 Y229
G0 Y51
G0 Y229
G0 Y51
G0 Y229
G0 Y51
G0 Y229
G0 Y51
G0 Y229
G0 Y51
G4 P6000 ; pause for 6 seconds
G0 F3000 X92 Y177
G0 X219 Y51
G0 X92 Y177
G0 X219 Y51
G0 X92 Y177
G0 X219 Y51
G0 X92 Y177
G0 X219 Y51
G0 X92 Y177
G0 X219 Y51
G4 P6000 ; pause for 6 seconds
G0 F6000 X92 Y177
G0 X219 Y51
G0 X92 Y177
G0 X219 Y51
G0 X92 Y177
G0 X219 Y51
G0 X92 Y177
G0 X219 Y51
G0 X92 Y177
G0 X219 Y51
G4 P6000 ; pause for 6 seconds
;===== date: 20240528 =====================
M400 ; wait for buffer to clear
G1 X128 Y128 F2000 ; move to safe pos

M140 S0 ; turn off bed
M106 S0 ; turn off fan
M106 P2 S0 ; turn off remote part cooling fan
M106 P3 S0 ; turn off chamber cooling fan
M104 S0 ; turn off hotend

M622.1 S1 ; for prev firmware, default turned on


M400 ; wait all motion done
M17 S ; enable steppers
M17 Z0.4 ; lower z motor current to reduce impact if there is something in the bottom
M400 P100 ; wait 100ms
M17 R ; restore z current

M220 S100  ; Reset feedrate magnitude
M201.2 K1.0 ; Reset acc magnitude
M73.2   R1.0 ;Reset left time magnitude
M1002 set_gcode_claim_speed_level : 0 ; reset speed claim

M17 X0.8 Y0.8 Z0.5 ; lower motor current to 45% power
M960 S5 P0 ; turn off logo lamp
